Street,City,State,ZIP,Phone,Website,Lat,Long
400 Russell Pkwy,Forsyth,GA,31029,4789745436,https://www.wyndhamhotels.com/laquinta/forsyth-georgia/la-quinta-forsyth/overview,33.043798982652,-83.941139990436
4051 Garden View Drive,Grand Forks,ND,58201,7013141106,https://www.wyndhamhotels.com/laquinta/grand-forks-north-dakota/la-quinta-grand-forks/overview,47.912722983357,-97.086319987237
2240 North 12th St.,Bismarck,ND,58501,7012040024,https://www.wyndhamhotels.com/laquinta/bismarck-north-dakota/la-quinta-bismarck/overview,46.829844795554,-100.773797808575
2355 46th St. S,Fargo,ND,58104,7016399731,https://www.wyndhamhotels.com/laquinta/fargo-north-dakota/la-quinta-fargo-medical-center/overview,46.84298963139,-96.864423433721
552 12th St. W,Dickinson,ND,58601,7013008906,https://www.wyndhamhotels.com/laquinta/dickinson-north-dakota/la-quinta-dickinson/overview,46.894492989823,-102.793408996795
406 Heather Rd.,Guthrie,OK,73044,4052936000,https://www.wyndhamhotels.com/laquinta/guthrie-oklahoma/la-quinta-guthrie/overview,35.881328981314,-97.395660997087
451 West Albany Street,Broken Arrow,OK,74012,9186153400,https://www.wyndhamhotels.com/laquinta/broken-arrow-oklahoma/la-quinta-tulsa-broken-arrow/overview,36.074604981614,-95.796161021942
774 S Lynn Riggs Boulevard,Claremore,OK,74017,9189651877,https://www.wyndhamhotels.com/laquinta/claremore-oklahoma/la-quinta-claremore/overview,36.303003000237,-95.622882021415
11500 I-40 Service Road,Yukon,OK,73099,4054947600,https://www.wyndhamhotels.com/laquinta/yukon-oklahoma/la-quinta-oklahoma-city-yukon/overview,35.467803918701,-97.726532116432
808 S. Meridian Avenue,Oklahoma City,OK,73108,4057027720,https://www.wyndhamhotels.com/laquinta/oklahoma-city-oklahoma/la-quinta-oklahoma-city-airport/overview,35.458305014976,-97.600079019368
1701 N. 32nd Street,Muskogee,OK,74401,9189139541,https://www.wyndhamhotels.com/laquinta/muskogee-oklahoma/la-quinta-muskogee/overview,35.766480982195,-95.403442958092
4829 Northwest Expressway,Oklahoma City,OK,73132,4053673183,https://www.wyndhamhotels.com/laquinta/oklahoma-city-oklahoma/la-quinta-oklahoma-city-nw-expwy/overview,35.545750016135,-97.608893009652
2828 E Arlington St.,Ada,OK,74820,5804365000,https://www.wyndhamhotels.com/laquinta/ada-oklahoma/la-quinta-ada/overview,34.781662306818,-96.636754932649
4300 Carriage Way,Weatherford,OK,73096,5803027112,https://www.wyndhamhotels.com/laquinta/weatherford-oklahoma/la-quinta-weatherford-ok/overview,35.534193006127,-98.654425041123
3413 N 14th St.,Ponca City,OK,74601,5803525096,https://www.wyndhamhotels.com/laquinta/ponca-city-oklahoma/la-quinta-ponca-city/overview,36.745568996643,-97.066097975274
200 Meline Drive,Edmond,OK,73034,4055135353,https://www.wyndhamhotels.com/laquinta/edmond-oklahoma/la-quinta-edmond/overview,35.65151999502,-97.428149002338
2611 East State Hwy 66,Elk City,OK,73644,5803034536,https://www.wyndhamhotels.com/laquinta/elk-city-oklahoma/la-quinta-elk-city/overview,35.422777019172,-99.373967004648
8949 N Garnett Rd.,Owasso,OK,74055,9183764447,https://www.wyndhamhotels.com/laquinta/owasso-oklahoma/la-quinta-owasso/overview,36.284720979764,-95.847420969907
3003 W Memorial Rd.,Oklahoma City,OK,73134,4052375177,https://www.wyndhamhotels.com/laquinta/oklahoma-city-oklahoma/la-quinta-okc-north-quail-springs/overview,35.610898987209,-97.570079014436
5401 Enterprise Crt.,Shawnee,OK,74804,4052757930,https://www.wyndhamhotels.com/laquinta/shawnee-oklahoma/la-quinta-shawnee/overview,35.385882982698,-96.909685040316
1137 S George Nigh Expwy.,McAlester,OK,74501,9184234400,https://www.wyndhamhotels.com/laquinta/mcalester-oklahoma/la-quinta-mcalester/overview,34.898130984464,-95.761684996896
2140 Riverwalk Dr.,Moore,OK,73160,4053784367,https://www.wyndhamhotels.com/laquinta/moore-oklahoma/la-quinta-oklahoma-city-moore/overview,35.318427018504,-97.491809976051
4914 W Owen K. Garriott Rd.,Enid,OK,73703,5802337100,https://www.wyndhamhotels.com/laquinta/enid-oklahoma/la-quinta-enid/overview,36.392473991212,-97.938621993148
2715 Chapman Rd.,Clinton,OK,73601,5805474128,https://www.wyndhamhotels.com/laquinta/clinton-oklahoma/la-quinta-clinton-historic-route-66/overview,35.495007985968,-98.992310035505
1408 NW 40th Street,Lawton,OK,73505,5803556800,https://www.wyndhamhotels.com/laquinta/lawton-oklahoma/la-quinta-lawton-fort-sill/overview,34.624227990687,-98.443322031965
5285 W 6th Avenue,Stillwater,OK,74074,4055640599,https://www.wyndhamhotels.com/laquinta/stillwater-oklahoma/la-quinta-stillwater-university-area/overview,36.114352008381,-97.130836023544
3410 Williams Avenue,Woodward,OK,73801,5802901011,https://www.wyndhamhotels.com/laquinta/woodward-oklahoma/la-quinta-woodward/overview,36.411583012162,-99.376126015268
23 N 67th E Avenue,Tulsa,OK,74115,9189493600,https://www.wyndhamhotels.com/laquinta/tulsa-oklahoma/la-quinta-tulsa-airport-expo-square/overview,36.161638012231,-95.901799991681
2009 S Cherokee St.,Catoosa,OK,74015,9187394600,https://www.wyndhamhotels.com/laquinta/catoosa-oklahoma/la-quinta-tulsa-catoosa-route-66/overview,36.167967019681,-95.760556038358
417 Criswell Boulevard,Durant,OK,74701,5809106701,https://www.wyndhamhotels.com/laquinta/durant-oklahoma/la-quinta-durant/overview,34.00151004822,-96.405002600261
930 Ed Noble Dr,Norman,OK,73072,4055794000,https://www.wyndhamhotels.com/laquinta/norman-oklahoma/la-quinta-oklahoma-city-norman/overview,35.207213999334,-97.483102016842
5653 Tinker Diagonal,Midwest City,OK,73110,4057331339,https://www.wyndhamhotels.com/laquinta/midwest-city-oklahoma/la-quinta-midwest-city-tinker-afb/overview,35.446136000308,-97.422379989839
2602B Rina Park Road,Ardmore,OK,73401,5802260100,https://www.wyndhamhotels.com/laquinta/ardmore-oklahoma/la-quinta-inn-and-suites-ardmore/overview,34.191217448857,-97.161673392496
707 South Houston,Tulsa,OK,74127,9189216493,https://www.wyndhamhotels.com/laquinta/tulsa-oklahoma/la-quinta-inn-and-suites-by-wyndham-tulsa-downtown-route-66/overview,36.147737003,-95.997544040902
2854 E 51st St,Tulsa,OK,74105,9187704367,https://www.wyndhamhotels.com/laquinta/tulsa-oklahoma/la-quinta-inn-and-suites-tulsa-midtown/overview,36.089330979664,-95.946577040454
7011 N land Crcl,Brooklyn Park,MN,55428,7634046176,https://www.wyndhamhotels.com/laquinta/brooklyn-park-minnesota/la-quinta-minneapolis-northwest/overview,45.081873403435,-93.390633349023
1805 Maple Grove Road,Duluth,MN,55811,2185240494,https://www.wyndhamhotels.com/laquinta/duluth-minnesota/la-quinta-duluth/overview,46.809705010061,-92.164148014115
4353 Canal Place SE,Rochester,MN,55904,5072894200,https://www.wyndhamhotels.com/laquinta/rochester-minnesota/la-quinta-rochester-mayo-clinic-s/overview,43.960257998649,-92.46287803746
7815 Nicollet Avenue South,Bloomington,MN,55420,9528817311,https://www.wyndhamhotels.com/laquinta/bloomington-minnesota/la-quinta-inn-minneapolis-airport-bloomington/overview,44.860470376378,-93.2772140453
700 Bielenberg Dr.,Woodbury,MN,55125,6519680448,https://www.wyndhamhotels.com/laquinta/woodbury-minnesota/la-quinta-st-paul-woodbury/overview,44.938702660119,-92.955028355566
5151 American Blvd. W,Bloomington,MN,55437,9528301300,https://www.wyndhamhotels.com/laquinta/bloomington-minnesota/la-quinta-minneapolis-bloomington-w/overview,44.855981783409,-93.347044183569
10420 Wayzata Boulevard,Minnetonka,MN,55305,9525411094,https://www.wyndhamhotels.com/laquinta/minnetonka-minnesota/la-quinta-minneapolis-minnetonka/overview,44.973970188281,-93.411141519161
318 Taylor Rd.,Hazelwood,MO,63042,3146567457,https://www.wyndhamhotels.com/laquinta/hazelwood-missouri/la-quinta-inn-st-louis-hazelwood-airport-north/overview,38.780741984388,-90.355809987688
3320 South Rangeline Rd,Joplin,MO,64804,4177810500,https://www.wyndhamhotels.com/laquinta/joplin-missouri/la-quinta-joplin/overview,37.053093983351,-94.479317010604
3402 NW Jefferson St.,Blue Springs,MO,64015,8162957097,https://www.wyndhamhotels.com/laquinta/blue-springs-missouri/la-quinta-blue-springs/overview,39.035582068507,-94.303701244881
11805 Lackland Road,St. Louis,MO,63146,3149913262,https://www.wyndhamhotels.com/laquinta/st-louis-missouri/la-quinta-st-louis-westport/overview,38.698916001571,-90.4345459819
2535 South Campbell Avenue,Springfield,MO,65807,4178906060,https://www.wyndhamhotels.com/laquinta/springfield-missouri/la-quinta-springfield-south/overview,37.168320006304,-93.296260998257
6901 NW 83rd Street,Kansas City,MO,64152,8165334479,https://www.wyndhamhotels.com/laquinta/kansas-city-missouri/la-quinta-kansas-city-airport/overview,39.243737989684,-94.660623024525
2214 Taney,N. Kansas City,MO,64116,8165481456,https://www.wyndhamhotels.com/laquinta/n-kansas-city-missouri/la-quinta-inn-kansas-city-north/overview,39.14713198745,-94.558663961738
1001 Veterans Blvd.,Festus,MO,63028,6366381800,https://www.wyndhamhotels.com/laquinta/festus-missouri/la-quinta-festus-st-louis-south/overview,38.214220003325,-90.403693034502
2500 I-70 Dr. SW,Columbia,MO,65203,5733555794,https://www.wyndhamhotels.com/laquinta/columbia-missouri/la-quinta-columbia/overview,38.96785498083,-92.376032971021
2445 N Airport Plaza Ave.,Springfield,MO,65803,4177086553,https://www.wyndhamhotels.com/laquinta/springfield-missouri/la-quinta-springfield-airport-plaza/overview,37.242858008129,-93.346481003494
3226 Shepherd of the Hill Expo,Branson,MO,65616,4173129824,https://www.wyndhamhotels.com/laquinta/branson-missouri/la-quinta-branson/overview,36.653634983419,-93.280306967572
2321 Troost Ave,Kansas City,MO,64108,8168750711,https://www.wyndhamhotels.com/laquinta/kansas-city-missouri/la-quinta-inn-and-suites-kansas-city-beacon-hill/overview,39.084282004779,-94.57023702309
1580 S Kirkwood Road,St. Louis,MO,63127,3147170101,https://www.wyndhamhotels.com/laquinta/st-louis-missouri/la-quinta-inn-and-suites-st-louis-route-66/overview,38.556461994795,-90.406084978211
3003 South Old Orchard Road,Jackson,MO,63755,5739875501,https://www.wyndhamhotels.com/laquinta/jackson-missouri/la-quinta-inn-and-suites-jackson-cape-girardeau/overview,37.352312001098,-89.612188995635
350 Meijer Dr.,Florence,KY,41042,8592828212,https://www.wyndhamhotels.com/laquinta/florence-kentucky/la-quinta-cincinnati-airport-florence/overview,39.011869988875,-84.63522502437
1953 Mel Browning Street,Bowling Green,KY,42104,2707830083,https://www.wyndhamhotels.com/laquinta/bowling-green-kentucky/la-quinta-bowling-green/overview,36.930374999964,-86.417521986373
100 Canebrake Dr.,Lexington,KY,40509,8595431877,https://www.wyndhamhotels.com/laquinta/lexington-kentucky/la-quinta-lexington-south-hamburg/overview,37.960890013706,-84.384279979572
1920 Stanton Way,Lexington,KY,40511,8592317551,https://www.wyndhamhotels.com/laquinta/lexington-kentucky/la-quinta-inn-lexington/overview,38.100288020494,-84.481973994748
3960 Coleman Crossing Cir.,Paducah,KY,42001,2704434800,https://www.wyndhamhotels.com/laquinta/paducah-kentucky/la-quinta-paducah/overview,37.086285020731,-88.682999959534
345 Griffin Bell Dr.,Hopkinsville,KY,42240,2702162705,https://www.wyndhamhotels.com/laquinta/hopkinsville-kentucky/la-quinta-hopkinsville/overview,36.824592993047,-87.475728964189
210 Commerce Drive,Elizabethtown,KY,42701,2707654747,https://www.wyndhamhotels.com/laquinta/elizabethtown-kentucky/la-quinta-elizabethtown/overview,37.708924011192,-85.833415987824
1501 Alliant Ave.,Louisville,KY,40299,5024389021,https://www.wyndhamhotels.com/laquinta/louisville-kentucky/la-quinta-louisville-east/overview,38.220462006619,-85.536005024582
13825 Terra View Trl,Louisville,KY,40245,5022085205,https://www.wyndhamhotels.com/laquinta/louisville-kentucky/la-quinta-inn-and-suites-louisville-ne-old-henry-rd/overview,38.27180799482,-85.493639030258
3305 East John Rowan Blvd,Bardstown,KY,40004,5022336680,https://www.wyndhamhotels.com/laquinta/bardstown-kentucky/la-quinta-inn-and-suites-bardstown/overview,37.80715435763,-85.430207816554
546 South Padre Isl Dr.,Corpus Christi,TX,78405,3612992600,https://www.wyndhamhotels.com/laquinta/corpus-christi-texas/la-quinta-corpus-christi-airport/overview,27.757041001579,-97.459717009896
101 South Frontage Road I-20 West,Pecos,TX,79772,4324457830,https://www.wyndhamhotels.com/laquinta/pecos-texas/la-quinta-pecos/overview,31.394650983342,-103.50113700307
6790 SW FRWY.,Houston,TX,77074,7137843838,https://www.wyndhamhotels.com/laquinta/houston-texas/la-quinta-houston-southwest/overview,29.714074996167,-95.503710971914
2427 Hwy 71 S,Columbus,TX,78934,9797330522,https://www.wyndhamhotels.com/laquinta/columbus-texas/la-quinta-columbus-tx/overview,29.690616982845,-96.538272014138
1603 E. Oltorf Boulevard,Austin,TX,78741,5124476661,https://www.wyndhamhotels.com/laquinta/austin-texas/la-quinta-inn-austin-oltorf/overview,30.232902020324,-97.740022017499
14000 Medical Complex Dr.,Tomball,TX,77375,2815160400,https://www.wyndhamhotels.com/laquinta/tomball-texas/la-quinta-tomball/overview,30.084631014655,-95.633244987406
203 E. Hwy 90,Luling,TX,78648,8303515320,https://www.wyndhamhotels.com/laquinta/luling-texas/la-quinta-luling/overview,29.655337007556,-97.59128003269
8300 John Carpenter Fwy.,Dallas,TX,75247,2144149000,https://www.wyndhamhotels.com/laquinta/dallas-texas/la-quinta-dallas-love-field/overview,32.822716018568,-96.876967035642
108 Texas Ave,Bridge City,TX,77611,4097352221,https://www.wyndhamhotels.com/laquinta/bridge-city-texas/la-quinta-bridge-city/overview,30.017270017423,-93.849114986998
2421 Walnut Hill Ln.,Dallas,TX,75229,9723017281,https://www.wyndhamhotels.com/laquinta/dallas-texas/la-quinta-dallas-i35-walnut-hill-ln/overview,32.882068987415,-96.896628968835
641 N Interstate 35 E,DeSoto,TX,75115,9729206539,https://www.wyndhamhotels.com/laquinta/desoto-texas/la-quinta-dallas-south-desoto/overview,32.601095984038,-96.825183973101
1120 S. 10th St.,McAllen,TX,78501,9566886764,https://www.wyndhamhotels.com/laquinta/mcallen-texas/la-quinta-mcallen-la-plaza-mall/overview,26.193219980315,-98.233658027944
4424 Westway Park Blvd.,Houston,TX,77041,7139391400,https://www.wyndhamhotels.com/laquinta/houston-texas/la-quinta-houston-west-at-clay-road/overview,29.83317400321,-95.559070005808
11155 W Loop 1604 N,San Antonio,TX,78254,2104478000,https://www.wyndhamhotels.com/laquinta/san-antonio-texas/la-quinta-san-antonio-northwest/overview,29.547457010274,-98.674816032255
6511 West Military Drive,San Antonio,TX,78227,2106743200,https://www.wyndhamhotels.com/laquinta/san-antonio-texas/la-quinta-inn-san-antonio-lackland/overview,29.400332020316,-98.628398980307
7540 Memorial Blvd.,Port Arthur,TX,77642,4097228383,https://www.wyndhamhotels.com/laquinta/port-arthur-texas/la-quinta-port-arthur/overview,29.937547012203,-93.980469970955
1465 East Main Street,Fredericksburg,TX,78624,8309902899,https://www.wyndhamhotels.com/laquinta/fredericksburg-texas/la-quinta-fredericksburg/overview,30.254250979169,-98.849818016798
1220 N Central Exwy.,Allen,TX,75013,9452600618,https://www.wyndhamhotels.com/laquinta/allen-texas/la-quinta-allen-at-the-village/overview,33.116731011829,-96.667365979714
18201 Kenswick Drive,Humble,TX,77338,2814461300,https://www.wyndhamhotels.com/laquinta/humble-texas/la-quinta-by-wyndham-houston-bush-intl-airport-e/overview,29.984702006907,-95.296513007626
909 E Frontage Road,Alamo,TX,78516,9567836955,https://www.wyndhamhotels.com/laquinta/alamo-texas/la-quinta-alamo-mcallen-east/overview,26.190331753587,-98.118166773965
801 S. Ware Rd.,McAllen,TX,78501,9566826765,https://www.wyndhamhotels.com/laquinta/mcallen-texas/la-quinta-mcallen-convention-center/overview,26.199147997517,-98.262042001943
308 SE Georgia Avenue,Sweetwater,TX,79556,3259336600,https://www.wyndhamhotels.com/laquinta/sweetwater-texas/la-quinta-sweetwater-east/overview,32.452387987847,-100.38989800978
1112 S Fort Hood St.,Killeen,TX,76541,2543124338,https://www.wyndhamhotels.com/laquinta/killeen-texas/la-quinta-inn-killeen-fort-hood/overview,31.109673986728,-97.745851966434
930 Normandy St.,Houston,TX,77015,8323786093,https://www.wyndhamhotels.com/laquinta/houston-texas/la-quinta-houston-east-at-normandy/overview,29.772967002249,-95.206980032477
5215 I-10 E,Baytown,TX,77521,2818392974,https://www.wyndhamhotels.com/laquinta/baytown-texas/la-quinta-houston-baytown-east/overview,29.822306228651,-94.887703971627
4424 S. Mopac Expwy,Austin,TX,78735,5128993000,https://www.wyndhamhotels.com/laquinta/austin-texas/la-quinta-austin-southwest/overview,30.240801000148,-97.81744398075
1126 State Hwy 332 West,Clute,TX,77531,9792657461,https://www.wyndhamhotels.com/laquinta/clute-texas/la-quinta-inn-clute-lake-jackson/overview,29.010614007251,-95.412109007785
201 Buddy Ganem Drive,Portland,TX,78374,3617047911,https://www.wyndhamhotels.com/laquinta/portland-texas/la-quinta-corpus-christi-portland/overview,27.898266011802,-97.310523994877
431 Airport Freeway,Euless,TX,76040,8178364000,https://www.wyndhamhotels.com/laquinta/euless-texas/la-quinta-dfw-airport-west-euless/overview,32.836032012867,-97.089332024143
18869 IH-35 N,Kyle,TX,78640,5122955599,https://www.wyndhamhotels.com/laquinta/kyle-texas/la-quinta-kyle-austin-south/overview,30.032850005679,-97.845172992835
4465 N I-35,Denton,TX,76207,9408080444,https://www.wyndhamhotels.com/laquinta/denton-texas/la-quinta-denton-university-drive/overview,33.237031019869,-97.17782203908
402 Hwy 59 Loop South,Livingston,TX,77351,9362620485,https://www.wyndhamhotels.com/laquinta/livingston-texas/la-quinta-livingston/overview,30.703259976908,-94.953006522242
15510 J.F.K. Boulevard,Houston,TX,77032,2818702196,https://www.wyndhamhotels.com/laquinta/houston-texas/la-quinta-houston-bush-iah-south/overview,29.942690986182,-95.330686026872
226 Spur 5,Winnie,TX,77665,4092968800,https://www.wyndhamhotels.com/laquinta/winnie-texas/la-quinta-winnie/overview,29.829665003265,-94.382354987032
5520 E Sam Houston Parkway N,Houston,TX,77015,2814524402,https://www.wyndhamhotels.com/laquinta/houston-texas/la-quinta-houston-channelview/overview,29.803527002131,-95.162345978973
14430 S Padre Island Dr.,Corpus Christi,TX,78418,3619499777,https://www.wyndhamhotels.com/laquinta/corpus-christi-texas/la-quinta-corpus-christi-n-padre-isl/overview,27.62095698976,-97.220959000858
2511 East Montgomery Place,Wichita Falls,TX,76308,9404683107,https://www.wyndhamhotels.com/laquinta/wichita-falls-texas/la-quinta-wichita-falls-msu-area/overview,33.863012000855,-98.533148038449
500 W Harvester,Pampa,TX,79065,8064861575,https://www.wyndhamhotels.com/laquinta/pampa-texas/la-quinta-pampa/overview,35.550039999909,-100.970402975087
4118 Faudree Rd.,Odessa,TX,79765,4322889026,https://www.wyndhamhotels.com/laquinta/odessa-texas/la-quinta-odessa-north-sienna-tower/overview,31.91766698934,-102.288910039835
9305 E Interstate 40,Amarillo,TX,79118,8063359572,https://www.wyndhamhotels.com/laquinta/amarillo-texas/la-quinta-amarillo-airport/overview,35.193636992571,-101.731314995201
1910 10th St.,Floresville,TX,78114,8305423077,https://www.wyndhamhotels.com/laquinta/floresville-texas/la-quinta-floresville/overview,29.13493598771,-98.145304973305
607 Texas Avenue,College Station,TX,77840,9796967777,https://www.wyndhamhotels.com/laquinta/college-station-texas/la-quinta-inn-college-station/overview,30.627946984315,-96.332745988077
110 S Sonoma Trl.,Ennis,TX,75119,9728754000,https://www.wyndhamhotels.com/laquinta/ennis-texas/la-quinta-ennis/overview,32.335703010827,-96.612982012617
7310 Calmont Ave.,Fort Worth,TX,76116,8172444777,https://www.wyndhamhotels.com/laquinta/fort-worth-texas/la-quinta-fort-worth-west-i-30/overview,32.734626993879,-97.443195021452
6504 Interstate 27 S,Lubbock,TX,79412,8067769100,https://www.wyndhamhotels.com/laquinta/lubbock-texas/la-quinta-lubbock-south/overview,33.535721983544,-101.846012958254
880 E I-20,Colorado City,TX,79512,3253075504,https://www.wyndhamhotels.com/laquinta/colorado-city-texas/la-quinta-colorado-city/overview,32.410265990724,-100.846296996272
7944 Gtwy E,El Paso,TX,79915,9155913300,https://www.wyndhamhotels.com/laquinta/el-paso-texas/la-quinta-el-paso-east/overview,31.75183401059,-106.346916009834
28332 SW Freeway 59,Rosenberg,TX,77471,8325956111,https://www.wyndhamhotels.com/laquinta/rosenberg-texas/la-quinta-houston-rosenberg/overview,29.532886999442,-95.811593027698
3750 Market St.,The Colony,TX,75056,4692940323,https://www.wyndhamhotels.com/laquinta/the-colony-texas/la-quinta-dallas-plano-the-colony/overview,33.063969990734,-96.896132005796
22025 US Highway 59,New Caney,TX,77357,2813541904,https://www.wyndhamhotels.com/laquinta/new-caney-texas/la-quinta-houston-new-caney/overview,30.127456001997,-95.228024979694
7620 North Mesa,El Paso,TX,79912,9155852999,https://www.wyndhamhotels.com/laquinta/el-paso-texas/la-quinta-el-paso-west-bartlett/overview,31.840036987253,-106.567520995889
1344 Eaton Drive,Sulphur Springs,TX,75482,9038858181,https://www.wyndhamhotels.com/laquinta/sulphur-springs-texas/la-quinta-sulphur-springs/overview,33.118628004155,-95.590579004768
27130 US-290,Cypress,TX,77429,2818693015,https://www.wyndhamhotels.com/laquinta/cypress-texas/la-quinta-houston-cypress/overview,29.939442769353,-95.653835155423
311 Stadium Dr.,Waxahachie,TX,75165,9723625724,https://www.wyndhamhotels.com/laquinta/waxahachie-texas/la-quinta-waxahachie/overview,32.416554010667,-96.83625001313
2108 Coulter Street,Amarillo,TX,79106,8063526311,https://www.wyndhamhotels.com/laquinta/amarillo-texas/la-quinta-inn-amarillo-west-medical-center/overview,35.189080003271,-101.921399041042
9002 Broadway,Pearland,TX,77584,2814125454,https://www.wyndhamhotels.com/laquinta/pearland-texas/la-quinta-pearland-houston-south/overview,29.558278005364,-95.359342999458
1631 Water St.,Gonzales,TX,78629,8305194255,https://www.wyndhamhotels.com/laquinta/gonzales-texas/la-quinta-gonzales/overview,29.512349995557,-97.46267297187
3490 E. Sam Houston Pkwy So,Pasadena,TX,77505,2816062249,https://www.wyndhamhotels.com/laquinta/pasadena-texas/la-quinta-pasadena/overview,29.658658001413,-95.158237002398
3000 S Loop 256,Palestine,TX,75801,9033575359,https://www.wyndhamhotels.com/laquinta/palestine-texas/la-quinta-palestine/overview,31.733988980639,-95.629434993318
2151 South Highway 77,Kingsville,TX,78363,3615923000,https://www.wyndhamhotels.com/laquinta/kingsville-texas/la-quinta-kingsville/overview,27.497027994831,-97.844938970099
2000 10th St.,Bridgeport,TX,76426,9406832040,https://www.wyndhamhotels.com/laquinta/bridgeport-texas/la-quinta-bridgeport/overview,33.221617999124,-97.756856986208
2552 S Southeast Loop 323,Tyler,TX,75701,9034819880,https://www.wyndhamhotels.com/laquinta/tyler-texas/la-quinta-tyler-university-area/overview,32.32192198854,-95.265186985612
2205 Pasadena Freeway,Pasadena,TX,77506,7134752205,https://www.wyndhamhotels.com/laquinta/pasadena-texas/la-quinta-pasadena-north/overview,29.713528998994,-95.183324038602
104 N LHS Dr.,Lumberton,TX,77657,4097513999,https://www.wyndhamhotels.com/laquinta/lumberton-texas/la-quinta-lumberton/overview,30.259327981742,-94.218006988158
2921 Hwy. 35 N,Rockport,TX,78382,3617279824,https://www.wyndhamhotels.com/laquinta/rockport-texas/la-quinta-rockport-fulton/overview,28.057986990576,-97.042262021938
10701 Lakeline Mall Dr.,Austin,TX,78717,7373342104,https://www.wyndhamhotels.com/laquinta/austin-texas/la-quinta-austin-nw-lakeline-mall/overview,30.475347647665,-97.792234736398
1838 Graham Rd.,College Station,TX,77845,9797046100,https://www.wyndhamhotels.com/laquinta/college-station-texas/la-quinta-college-station-south/overview,30.579215018348,-96.283894999085
2131 W Interstate 20,Grand Prairie,TX,75052,2147052815,https://www.wyndhamhotels.com/laquinta/grand-prairie-texas/la-quinta-dallas-grand-prairie-south/overview,32.674853002035,-97.032093013186
1017 North Loop 1604 E,San Antonio,TX,78232,2108994643,https://www.wyndhamhotels.com/laquinta/san-antonio-texas/la-quinta-san-antonio-north-stone-oak/overview,29.611827009177,-98.477864022589
1102 IH 20 W,Big Spring,TX,79720,4322714152,https://www.wyndhamhotels.com/laquinta/big-spring-texas/la-quinta-big-spring/overview,32.256986497372,-101.465701226702
825 North Watson Road,Arlington,TX,76011,8176404142,https://www.wyndhamhotels.com/laquinta/arlington-texas/la-quinta-arlington-north-6-flags-dr/overview,32.754719002524,-97.065802010273
6909 Atascocita Rd.,Humble,TX,77346,8326441609,https://www.wyndhamhotels.com/laquinta/humble-texas/la-quinta-houston-humble-atascocita/overview,29.996108016929,-95.173551996785
7220 Bob Bullock Loop,Laredo,TX,78041,9567247222,https://www.wyndhamhotels.com/laquinta/laredo-texas/la-quinta-laredo-airport/overview,27.56130998375,-99.444393012414
170 Medical Dr.,Pearsall,TX,78061,8308723277,https://www.wyndhamhotels.com/laquinta/pearsall-texas/la-quinta-pearsall/overview,28.898200992913,-99.118961011581
2451 Shadow View Ln.,Houston,TX,77077,8328569908,https://www.wyndhamhotels.com/laquinta/houston-texas/la-quinta-houston-energy-corridor/overview,29.73768698505,-95.60033503715
5155 I-37 North,Corpus Christi,TX,78408,3618885721,https://www.wyndhamhotels.com/laquinta/corpus-christi-texas/la-quinta-inn-corpus-christi-north/overview,27.802498996166,-97.452632960609
4001 Scots Legacy,Arlington,TX,76015,8174677756,https://www.wyndhamhotels.com/laquinta/arlington-texas/la-quinta-dallas-arlington-south/overview,32.679206017721,-97.123254005389
1000 Dowdy Ferry Road,Hutchins,TX,75141,9453560974,https://www.wyndhamhotels.com/laquinta/hutchins-texas/la-quinta-dallas-hutchins/overview,32.648802005057,-96.705287972794
128 North Expressway 77,Raymondville,TX,78580,9566894000,https://www.wyndhamhotels.com/laquinta/raymondville-texas/la-quinta-raymondville/overview,26.483805014977,-97.770361992424
10001 North Central Expressway,Dallas,TX,75231,2143618200,https://www.wyndhamhotels.com/laquinta/dallas-texas/la-quinta-dallas-north-central/overview,32.883075989263,-96.770959010707
4122 Faudree Rd.,Odessa,TX,79765,4322889041,https://www.wyndhamhotels.com/laquinta/odessa-texas/la-quinta-odessa-north/overview,31.918399986773,-102.288176036574
11901 North Mopac Expway,Austin,TX,78759,5128322121,https://www.wyndhamhotels.com/laquinta/austin-texas/la-quinta-austin-at-the-domain/overview,30.406806017462,-97.718861986752
1010 E Whitestone Blvd.,Cedar Park,TX,78613,5123797218,https://www.wyndhamhotels.com/laquinta/cedar-park-texas/la-quinta-austin-cedar-park/overview,30.524085229507,-97.817370974374
4850 West John Carpenter Freeway,Irving,TX,75063,9729154022,https://www.wyndhamhotels.com/laquinta/irving-texas/la-quinta-dallas-dfw-airport-north/overview,32.917458011265,-97.015832959216
3346 Forest Hill Crcl,Fort Worth,TX,76140,8173396977,https://www.wyndhamhotels.com/laquinta/fort-worth-texas/la-quinta-ft-worth-forest-hill-tx/overview,32.659554981002,-97.271779988553
4115 Marsha Sharp Fwy.,Lubbock,TX,79407,8067920065,https://www.wyndhamhotels.com/laquinta/lubbock-texas/la-quinta-lubbock-west-medical-center/overview,33.575837017771,-101.902090991802
2307 W Loop 306,San Angelo,TX,76904,3259490515,https://www.wyndhamhotels.com/laquinta/san-angelo-texas/la-quinta-inn-and-conference-center-san-angelo/overview,31.415244984168,-100.47591100469
5922 Northwest Expressway,San Antonio,TX,78201,7262074756,https://www.wyndhamhotels.com/laquinta/san-antonio-texas/la-quinta-inn-san-antonio-vance-jackson/overview,29.484326228695,-98.53360046541
14925 Landmark Boulevard,Dallas,TX,75254,6827473578,https://www.wyndhamhotels.com/laquinta/dallas-texas/la-quinta-dallas-addison-galleria/overview,32.951507579779,-96.828177505776
900 Dolorosa,San Antonio,TX,78207,2102710001,https://www.wyndhamhotels.com/laquinta/san-antonio-texas/la-quinta-inn-san-antonio-market-square/overview,29.423941997543,-98.499803989427
24868 I-45 N,Spring,TX,77386,2816819188,https://www.wyndhamhotels.com/laquinta/spring-texas/la-quinta-inn-and-suites-the-woodlands-spring/overview,30.123886987625,-95.440340012051
1902 S Jackson St.,Jacksonville,TX,75766,9032842492,https://www.wyndhamhotels.com/laquinta/jacksonville-texas/la-quinta-jacksonville-tx/overview,31.942101997296,-95.253875020544
12727 Southwest Freeway,Stafford,TX,77477,2812402300,https://www.wyndhamhotels.com/laquinta/stafford-texas/la-quinta-houston-stafford-sugarland/overview,29.634465020911,-95.584122005656
1620 Rotan Ave.,Mt. Pleasant,TX,75455,9032047325,https://www.wyndhamhotels.com/laquinta/mt-pleasant-texas/la-quinta-mt-pleasant/overview,33.17226598187,-95.003144971562
4700 North Freeway,Fort Worth,TX,76137,8172222888,https://www.wyndhamhotels.com/laquinta/fort-worth-texas/la-quinta-fort-worth-north/overview,32.82631101684,-97.311626969516
2525 East Main Street,Eagle Pass,TX,78852,8307737000,https://www.wyndhamhotels.com/laquinta/eagle-pass-texas/la-quinta-inn-eagle-pass/overview,28.710047006006,-100.47506703086
4900 Bryant Irvin Road,Fort Worth,TX,76132,8173702700,https://www.wyndhamhotels.com/laquinta/fort-worth-texas/la-quinta-fort-worth-city-view/overview,32.678438989761,-97.416828990642
2004 North I-35,Round Rock,TX,78681,5122556666,https://www.wyndhamhotels.com/laquinta/round-rock-texas/la-quinta-round-rock-north/overview,30.5296045032,-97.692261178834
15225 Katy Freeway,Houston,TX,77094,2816469200,https://www.wyndhamhotels.com/laquinta/houston-texas/la-quinta-houston-west-park-10/overview,29.783719014276,-95.651598002599
1625 West Loop South,Houston,TX,77027,7133553440,https://www.wyndhamhotels.com/laquinta/houston-texas/la-quinta-houston-galleria-area/overview,29.750418006326,-95.454853025943
300 E. 11th Street,Austin,TX,78701,5124761166,https://www.wyndhamhotels.com/laquinta/austin-texas/la-quinta-inn-austin-capitol-downtown/overview,30.272177984133,-97.737973983278
1619 I-35 North,San Marcos,TX,78666,5123928800,https://www.wyndhamhotels.com/laquinta/san-marcos-texas/la-quinta-inn-san-marcos/overview,29.896233994465,-97.911121974658
1501 Hwy 46 N,Seguin,TX,78155,8303720567,https://www.wyndhamhotels.com/laquinta/seguin-texas/la-quinta-seguin/overview,29.581244866924,-97.992219159325
12909 I H-37,Mathis,TX,78368,3615470200,https://www.wyndhamhotels.com/laquinta/mathis-texas/la-quinta-mathis/overview,28.110529998369,-97.818197010932
105 Christy Plz.,Stephenville,TX,76401,2549182444,https://www.wyndhamhotels.com/laquinta/stephenville-texas/la-quinta-stephenville/overview,32.201859984641,-98.24152997613
2062 US Hwy 59 E,Beeville,TX,78102,3613622222,https://www.wyndhamhotels.com/laquinta/beeville-texas/la-quinta-beeville/overview,28.412021020619,-97.724506025074
103 Market Place Boulevard,Brownwood,TX,76801,3255105397,https://www.wyndhamhotels.com/laquinta/brownwood-texas/la-quinta-brownwood/overview,31.730088000991,-98.978614005716
1405 S Hwy. 287,Decatur,TX,76234,9403995678,https://www.wyndhamhotels.com/laquinta/decatur-texas/la-quinta-decatur/overview,33.224895993818,-97.589522012318
107 E Kilpatrick Street,Cleburne,TX,76031,8177200710,https://www.wyndhamhotels.com/laquinta/cleburne-texas/la-quinta-cleburne/overview,32.370096013122,-97.395022966617
880 TX-35 Loop,Alvin,TX,77511,2816075535,https://www.wyndhamhotels.com/laquinta/alvin-texas/la-quinta-alvin/overview,29.417284201275,-95.229082018935
110 BMT Dr.,Jourdanton,TX,78026,8307693050,https://www.wyndhamhotels.com/laquinta/jourdanton-texas/la-quinta-jourdanton-pleasanton/overview,28.92574199891,-98.532544960516
7625 E. Ben White Boulevard,Austin,TX,78741,5123866800,https://www.wyndhamhotels.com/laquinta/austin-texas/la-quinta-austin-airport/overview,30.217363983494,-97.690914961365
7603 North Navarro,Victoria,TX,77904,3615723585,https://www.wyndhamhotels.com/laquinta/victoria-texas/la-quinta-inn-victoria/overview,28.866503987865,-96.998080004471
4431 Horizon Hill Boulevard,San Antonio,TX,78229,2105258090,https://www.wyndhamhotels.com/laquinta/san-antonio-texas/la-quinta-san-antonio-medical-ctr-nw/overview,29.516464001274,-98.556471019311
11033 Gateway Blvd W,El Paso,TX,79935,9155912244,https://www.wyndhamhotels.com/laquinta/el-paso-texas/la-quinta-inn-el-paso-east-lomaland/overview,31.74627198919,-106.332983023642
677 N Baylor Ave.,Cotulla,TX,78014,8308792200,https://www.wyndhamhotels.com/laquinta/cotulla-texas/la-quinta-cotulla/overview,28.444759016132,-99.244769019654
5001 East Hwy 80,Odessa,TX,79761,4323332820,https://www.wyndhamhotels.com/laquinta/odessa-texas/la-quinta-inn-odessa/overview,31.873646088149,-102.311980218823
2119 South First Ave.,Lufkin,TX,75901,9366343351,https://www.wyndhamhotels.com/laquinta/lufkin-texas/la-quinta-inn-lufkin/overview,31.305099190821,-94.726327087137
1604 West Barton Avenue,Temple,TX,76504,2547712980,https://www.wyndhamhotels.com/laquinta/temple-texas/la-quinta-inn-temple/overview,31.104188995019,-97.357199963814
1708 I-40 East,Amarillo,TX,79103,8063737486,https://www.wyndhamhotels.com/laquinta/amarillo-texas/la-quinta-inn-amarillo-mid-city/overview,35.193239980634,-101.801890912268
4603 N Cage Boulevard,Pharr,TX,78577,9565172773,https://www.wyndhamhotels.com/laquinta/pharr-texas/la-quinta-pharr-rgv-medical-center/overview,26.234700007473,-98.179384031417
3205 NE Loop 286,Paris,TX,75460,9037839600,https://www.wyndhamhotels.com/laquinta/paris-texas/la-quinta-paris/overview,33.673606009071,-95.517732973917
4130 West Wall Avenue,Midland,TX,79703,4326979900,https://www.wyndhamhotels.com/laquinta/midland-texas/la-quinta-inn-midland/overview,31.97268701716,-102.122522975375
6015 East End Blvd. South,Marshall,TX,75672,9039343080,https://www.wyndhamhotels.com/laquinta/marshall-texas/la-quinta-marshall/overview,32.486405019875,-94.360861021262
10150 Highway 20,Eastland,TX,76448,2546291414,https://www.wyndhamhotels.com/laquinta/eastland-texas/la-quinta-eastland/overview,32.400424001925,-98.792014987577
5051 N Expwy.,Brownsville,TX,78520,9562306218,https://www.wyndhamhotels.com/laquinta/brownsville-texas/la-quinta-brownsville-north/overview,25.9799489919,-97.51984501142
1601 W Southwest Loop 323,Tyler,TX,75701,9035612223,https://www.wyndhamhotels.com/laquinta/tyler-texas/la-quinta-inn-tyler/overview,32.304260983274,-95.320592036154
2020 Regal Drive,Corsicana,TX,75109,9038746292,https://www.wyndhamhotels.com/laquinta/corsicana-texas/la-quinta-corsicana/overview,32.100312012294,-96.440255966243
229 W Loop 121,Belton,TX,76513,2549392772,https://www.wyndhamhotels.com/laquinta/belton-texas/la-quinta-belton-temple-south/overview,31.030267985086,-97.476755994128
1915 Wall Street,Weatherford,TX,76086,8175944481,https://www.wyndhamhotels.com/laquinta/weatherford-texas/la-quinta-weatherford/overview,32.73251898714,-97.789650008916
1912 S Dumas Avenue,Dumas,TX,79029,8063954434,https://www.wyndhamhotels.com/laquinta/dumas-texas/la-quinta-dumas/overview,35.842036002242,-101.975414958771
1025 S State Hwy. 123,Karnes City,TX,78118,8307803223,https://www.wyndhamhotels.com/laquinta/karnes-city-texas/la-quinta-karnes-city-kenedy/overview,28.871176982704,-97.89253996587
689 E Interstate 30,Rockwall,TX,75087,9727711685,https://www.wyndhamhotels.com/laquinta/rockwall-texas/la-quinta-rockwall/overview,32.895799802102,-96.467614582026
3018 Catclaw Drive,Abilene,TX,79606,3252384185,https://www.wyndhamhotels.com/laquinta/abilene-texas/la-quinta-abilene-mall/overview,32.413220988779,-99.778629029067
7622 I-35 North,Austin,TX,78752,5124671701,https://www.wyndhamhotels.com/laquinta/austin-texas/la-quinta-inn-austin-north/overview,30.338957989746,-97.702031963366
5820 Walden Rd,Beaumont,TX,77707,4098420002,https://www.wyndhamhotels.com/laquinta/beaumont-texas/la-quinta-beaumont-west/overview,30.039231986757,-94.16141296465
8250 Anderson Boulevard,Fort Worth,TX,76120,8174492586,https://www.wyndhamhotels.com/laquinta/fort-worth-texas/la-quinta-fort-worth-eastchase/overview,32.761066994984,-97.174163003068
3180 Goliad Road,San Antonio,TX,78223,2103377171,https://www.wyndhamhotels.com/laquinta/san-antonio-texas/la-quinta-inn-san-antonio-brooks-city-base/overview,29.351033982519,-98.429149993895
365 Highway 46 S,New Braunfels,TX,78130,8303024010,https://www.wyndhamhotels.com/laquinta/new-braunfels-texas/la-quinta-new-braunfels/overview,29.699555444391,-98.091731368607
2912 N Hwy 75,Sherman,TX,75090,9038701122,https://www.wyndhamhotels.com/laquinta/sherman-texas/la-quinta-sherman/overview,33.668108695963,-96.612133177282
801 N US Hwy. 75,Denison,TX,75020,9034640340,https://www.wyndhamhotels.com/laquinta/denison-texas/la-quinta-denison-north-lake-texoma/overview,33.76488501847,-96.586985959013
880 Harbor Lakes Dr.,Granbury,TX,76048,8175732007,https://www.wyndhamhotels.com/laquinta/granbury-texas/la-quinta-granbury/overview,32.435057020017,-97.766217979494
22790 Hwy 59 N,Kingwood,TX,77339,2813596611,https://www.wyndhamhotels.com/laquinta/kingwood-texas/la-quinta-inn-and-suites-kingwood-houston-iah-airpt/overview,30.047276979334,-95.252093027929
4006 Sprayberry Lane,Conroe,TX,77303,9362280790,https://www.wyndhamhotels.com/laquinta/conroe-texas/la-quinta-conroe/overview,30.367658003405,-95.482669964192
8776 Airport Blvd.,Houston,TX,77061,7135103723,https://www.wyndhamhotels.com/laquinta/houston-texas/la-quinta-houston-hobby-airport/overview,29.652468007827,-95.261592993169
1165 Highway 67 West,Alvarado,TX,76009,8177838700,https://www.wyndhamhotels.com/laquinta/alvarado-texas/la-quinta-alvarado/overview,32.413060548247,-97.22580717596
1503 Breckenridge Rd.,Mansfield,TX,76063,8174056418,https://www.wyndhamhotels.com/laquinta/mansfield-texas/la-quinta-mansfield-tx/overview,32.593261000045,-97.140942000384
2400 W Mulberry Street,Angleton,TX,77515,9792676028,https://www.wyndhamhotels.com/laquinta/angleton-texas/la-quinta-angleton/overview,29.162999018637,-95.457720977933
6930 FM 1488 Rd.,Magnolia,TX,77354,2812591757,https://www.wyndhamhotels.com/laquinta/magnolia-texas/la-quinta-houston-magnolia/overview,30.22120100922,-95.573029981727
303 Blum.,San Antonio,TX,78205,2102229181,https://www.wyndhamhotels.com/laquinta/san-antonio-texas/la-quinta-san-antonio-riverwalk/overview,29.423831985064,-98.482644976341
6003 Woodway Drive,Woodway,TX,76712,2547720200,https://www.wyndhamhotels.com/laquinta/woodway-texas/la-quinta-woodway-waco-south/overview,31.510993014793,-97.193839017858
5006 Auburn St.,Lubbock,TX,79416,8063195967,https://www.wyndhamhotels.com/laquinta/lubbock-texas/la-quinta-lubbock-north/overview,33.601859013365,-101.919301972687
3416 Martin Luther King Blvd,Longview,TX,75602,9032389965,https://www.wyndhamhotels.com/laquinta/longview-texas/la-quinta-i-20-longview-south/overview,32.448887663171,-94.71588675618
118 E US Hwy 80,Mesquite,TX,75149,9725908349,https://www.wyndhamhotels.com/laquinta/mesquite-texas/la-quinta-dallas-mesquite/overview,32.788582017081,-96.594478039348
501 Hwy 2147 W,Marble Falls,TX,78654,8306376100,https://www.wyndhamhotels.com/laquinta/marble-falls-texas/la-quinta-marble-falls/overview,30.561039992869,-98.276870007756
2220 Hwy 62 S,Orange,TX,77630,4098830011,https://www.wyndhamhotels.com/laquinta/orange-texas/la-quinta-orange/overview,30.112769985624,-93.820178980855
150 Parker Dr.,Austin,TX,78728,5122462800,https://www.wyndhamhotels.com/laquinta/austin-texas/la-quinta-austin-round-rock/overview,30.474730991048,-97.674267998745
908 E Hawkins Pkwy,Longview,TX,75605,9032428877,https://www.wyndhamhotels.com/laquinta/longview-texas/la-quinta-longview-north/overview,32.546433067204,-94.732413522309
1809 Hwy 121 S,Bedford,TX,76021,8175458105,https://www.wyndhamhotels.com/laquinta/bedford-texas/la-quinta-dfw-airport-west-bedford/overview,32.839837983642,-97.122740027086
3610 Santa Ursula,Laredo,TX,78041,9567220511,https://www.wyndhamhotels.com/laquinta/laredo-texas/la-quinta-inn-laredo-i-35/overview,27.532478828349,-99.503415187789
5300 7th St.,Bay City,TX,77414,9793239095,https://www.wyndhamhotels.com/laquinta/bay-city-texas/la-quinta-bay-city/overview,28.989086010954,-95.928348999437
7007 E Exwy. 83,Mercedes,TX,78570,9565650505,https://www.wyndhamhotels.com/laquinta/mercedes-texas/la-quinta-mercedes/overview,26.160248003975,-97.880386038628
910 TX-35 N,Port Lavaca,TX,77979,3615516071,https://www.wyndhamhotels.com/laquinta/port-lavaca-texas/la-quinta-port-lavaca/overview,28.631958010901,-96.63005896687
805 Travis St.,Mission,TX,78572,9565810118,https://www.wyndhamhotels.com/laquinta/mission-texas/la-quinta-mission-at-west-mcallen/overview,26.196837986911,-98.306489977197
4440 N Central Expressway,Dallas,TX,75206,2148214220,https://www.wyndhamhotels.com/laquinta/dallas-texas/la-quinta-inn-dallas-uptown/overview,32.819700000258,-96.786271993437
111 Center Point Crt.,San Marcos,TX,78666,5126676284,https://www.wyndhamhotels.com/laquinta/san-marcos-texas/la-quinta-san-marcos-outlet-mall/overview,29.825000013143,-97.980142001985
13175 N Central Expy.,Dallas,TX,75243,9724809000,https://www.wyndhamhotels.com/laquinta/dallas-texas/la-quinta-dallas-richardson/overview,32.927636799083,-96.761834362309
101 W Bo Gibbs Boulevard,Glen Rose,TX,76043,2548980679,https://www.wyndhamhotels.com/laquinta/glen-rose-texas/la-quinta-glen-rose/overview,32.239722486908,-97.757076360409
100 W Cesar Chavez Boulevard,San Antonio,TX,78204,2102125400,https://www.wyndhamhotels.com/laquinta/san-antonio-texas/la-quinta-san-antonio-downtown/overview,29.419663999891,-98.497288999379
6702 S. Broadway Ave.,Tyler,TX,75703,9032661941,https://www.wyndhamhotels.com/laquinta/tyler-texas/la-quinta-tyler-south/overview,32.276854003909,-95.304701037381
17650 Four Oaks Lane,Schertz,TX,78154,2106552700,https://www.wyndhamhotels.com/laquinta/schertz-texas/la-quinta-schertz/overview,29.60564401448,-98.277727979365
375 E I 30,Garland,TX,75043,4692297384,https://www.wyndhamhotels.com/laquinta/garland-texas/la-quinta-garland-harbor-point/overview,32.85003498795,-96.57351196584
4201 N I-35,Gainesville,TX,76240,9402776368,https://www.wyndhamhotels.com/laquinta/gainesville-texas/la-quinta-gainesville/overview,33.674443989841,-97.153365992547
2210 West FM 544,Wylie,TX,75098,4699690911,https://www.wyndhamhotels.com/laquinta/wylie-texas/la-quinta-dallas-wylie/overview,33.007183015816,-96.563411018142
9034 W Sam Houston,Houston,TX,77064,2816716016,https://www.wyndhamhotels.com/laquinta/houston-texas/la-quinta-houston-nw-beltway8-westrd/overview,29.904155018695,-95.550836965233
10446 I-37,Corpus Christi,TX,78410,3612414245,https://www.wyndhamhotels.com/laquinta/corpus-christi-texas/la-quinta-corpus-christi-northwest/overview,27.84733999886,-97.571433027075
6111 IH-10 E,San Antonio,TX,78219,2107060925,https://www.wyndhamhotels.com/laquinta/san-antonio-texas/la-quinta-san-antonio-by-frost-bank-center/overview,29.445476992729,-98.363300002349
721 FM 1489 Brookshire,Brookshire,TX,77423,2813758888,https://www.wyndhamhotels.com/laquinta/brookshire-texas/la-quinta-inn-and-suites-brookshire-west-katy/overview,29.777445997939,-95.966835010781
653 North East Loop 820,Richland Hills,TX,76053,8175954442,https://www.wyndhamhotels.com/laquinta/richland-hills-texas/la-quinta-fort-worth-ne-mall/overview,32.81941128851,-97.206387342094
8383 FM 1960 West,Houston,TX,77070,8326175757,https://www.wyndhamhotels.com/laquinta/houston-texas/la-quinta-houston-willowbrook-vintage-park/overview,29.957457091097,-95.551076416774
2400 East Main St.,Alice,TX,78332,3616611777,https://www.wyndhamhotels.com/laquinta/alice-texas/la-quinta-alice/overview,27.764107993694,-98.043436015976
9125 Gateway West,El Paso,TX,79925,9155938400,https://www.wyndhamhotels.com/laquinta/el-paso-texas/la-quinta-inn-el-paso-cielo-vistas/overview,31.76656700753,-106.366247025489
4105 W Airport Freeway,Irving,TX,75062,9722526546,https://www.wyndhamhotels.com/laquinta/irving-texas/la-quinta-dfw-airport-south-irving/overview,32.838140983525,-97.007575024389
1128 Central Freeway North,Wichita Falls,TX,76306,9402472120,https://www.wyndhamhotels.com/laquinta/wichita-falls-texas/la-quinta-inn-wichita-falls-event-center-north/overview,33.98487445237,-98.541493986905
7550 Remcon Circle,El Paso,TX,79912,9158332522,https://www.wyndhamhotels.com/laquinta/el-paso-texas/la-quinta-inn-el-paso-west/overview,31.838027006871,-106.568293974999
850 Halm Boulevard,San Antonio,TX,78216,2103423738,https://www.wyndhamhotels.com/laquinta/san-antonio-texas/la-quinta-san-antonio-airport/overview,29.518521004132,-98.480901037567
1940 Sidney Baker St.,Kerrville,TX,78028,8308969200,https://www.wyndhamhotels.com/laquinta/kerrville-texas/la-quinta-kerrville/overview,30.065481006198,-99.120332961492
520 West Bay Area Blvd.,Webster,TX,77598,2815545290,https://www.wyndhamhotels.com/laquinta/webster-texas/la-quinta-houston-clear-lake-nasa/overview,29.545985986267,-95.135003959357
4800 West Plano Pkwy,Plano,TX,75093,9725990700,https://www.wyndhamhotels.com/laquinta/plano-texas/la-quinta-dallas-plano-west/overview,33.01512000757,-96.792397991192
225 East Alsbury Boulevard,Burleson,TX,76028,8173497574,https://www.wyndhamhotels.com/laquinta/burleson-texas/la-quinta-inn-and-suites-ft-worth-burleson/overview,32.564062011691,-97.315895034613
2606 N Loop 250 W,Midland,TX,79707,4326941200,https://www.wyndhamhotels.com/laquinta/midland-texas/la-quinta-midland-north/overview,32.006762010049,-102.155280961727
11130 NW Frwy.,Houston,TX,77092,7136808282,https://www.wyndhamhotels.com/laquinta/houston-texas/la-quinta-inn-and-suites-houston-nw-brookhollow/overview,29.818350020711,-95.465390000243
204 W Centennial Blvd.,Lindale,TX,75771,9038821600,https://www.wyndhamhotels.com/laquinta/lindale-texas/la-quinta-lindale/overview,32.474188018811,-95.395038004683
5800 Quebec Street,Fort Worth,TX,76135,8179003814,https://www.wyndhamhotels.com/laquinta/fort-worth-texas/la-quinta-fort-worth-lake-worth/overview,32.802625015752,-97.424486026831
1513 Old Brandon Rd.,Hillsboro,TX,76645,2543249986,https://www.wyndhamhotels.com/laquinta/hillsboro-texas/la-quinta-hillsboro/overview,32.018060019248,-97.098362016072
6501 Henneman Way,McKinney,TX,75070,9723320085,https://www.wyndhamhotels.com/laquinta/mckinney-texas/la-quinta-mckinney/overview,33.139030981408,-96.699455006374
1400 East Blvd.,Deer Park,TX,77536,2814765300,https://www.wyndhamhotels.com/laquinta/deer-park-texas/la-quinta-deer-park/overview,29.698864985117,-95.100143037317
1010 W Commerce Street,Fairfield,TX,75840,9033897441,https://www.wyndhamhotels.com/laquinta/fairfield-texas/la-quinta-fairfield-tx/overview,31.726655988827,-96.176877960645
4225 N MacArthur Blvd.,Irving,TX,75038,9722614900,https://www.wyndhamhotels.com/laquinta/irving-texas/la-quinta-dallas-las-colinas/overview,32.865552992032,-96.960711971373
1012 NE 1st Place,Andrews,TX,79714,4322233140,https://www.wyndhamhotels.com/laquinta/andrews-texas/la-quinta-andrews/overview,32.329645996135,-102.548371014441
801 Liberal St.,Dalhart,TX,79022,8062491145,https://www.wyndhamhotels.com/laquinta/dalhart-texas/la-quinta-dalhart/overview,36.06941297933,-102.514729994589
1314 W I-20,Monahans,TX,79756,4329435800,https://www.wyndhamhotels.com/laquinta/monahans-texas/la-quinta-monahans/overview,31.571676987955,-102.906752025199
4607 N Cage Blvd.,Pharr,TX,78577,9567828832,https://www.wyndhamhotels.com/laquinta/pharr-texas/la-quinta-pharr-north-mcallen/overview,26.235171992441,-98.179422001438
3107 S. Laurent St.,Victoria,TX,77901,3612373051,https://www.wyndhamhotels.com/laquinta/victoria-texas/la-quinta-victoria-south/overview,28.767440998353,-96.978661984661
380 E Palace Pkwy.,Grand Prairie,TX,75050,4699990875,https://www.wyndhamhotels.com/laquinta/grand-prairie-texas/la-quinta-dallas-grand-prairie-north/overview,32.761296994407,-97.006656032524
1310 Marketplace Dr.,Garland,TX,75041,9726855458,https://www.wyndhamhotels.com/laquinta/garland-texas/la-quinta-dallas-northeast-arboretum/overview,32.859146996801,-96.647510005463
6410 I-35 North,San Antonio,TX,78218,7262082038,https://www.wyndhamhotels.com/laquinta/san-antonio-texas/la-quinta-inn-san-antonio-i-35-n-at-rittiman-rd/overview,29.48866998753,-98.400888982416
12822 I 35 North.,San Antonio,TX,78233,2106575500,https://www.wyndhamhotels.com/laquinta/san-antonio-texas/la-quinta-inn-san-antonio-i-35-n-at-toepperwein/overview,29.555332981774,-98.345586023454
835 E Hwy 67,Duncanville,TX,75137,9729136146,https://www.wyndhamhotels.com/laquinta/duncanville-texas/la-quinta-duncanville/overview,32.64075001359,-96.893258018835
13501 Raceway Drive,Northlake,TX,76262,8177673149,https://www.wyndhamhotels.com/laquinta/northlake-texas/la-quinta-northlake/overview,33.023998999514,-97.272867959585
911 S 10th Street,Waco,TX,76706,2547562929,https://www.wyndhamhotels.com/laquinta/waco-texas/la-quinta-inn-and-suites-waco-downtown-baylor/overview,31.545969020364,-97.128394961883
1139 Crabb River Road,Richmond,TX,77469,3467023302,https://www.wyndhamhotels.com/laquinta/richmond-texas/la-quinta-inn-richmond-sugarland/overview,29.550946019381,-95.698781998688
11006 Interstate 35 North,San Antonio,TX,78233,2106551006,https://www.wyndhamhotels.com/laquinta/san-antonio-texas/la-quinta-san-antonio-alamo-city/overview,29.538017017552,-98.380512994891
16211 East Freeway,Channelview,TX,77530,2818645293,https://www.wyndhamhotels.com/laquinta/channelview-texas/la-quinta-houston-east-at-sheldon-rd/overview,29.784154998969,-95.11270901892
21119 North Freeway,Spring,TX,77388,3462242323,https://www.wyndhamhotels.com/laquinta/spring-texas/la-quinta-inn-and-suites-houston-spring-south/overview,30.070028163397,-95.435661500304
1657 S Stemmons Freeway,Lewisville,TX,75067,4694702891,https://www.wyndhamhotels.com/laquinta/lewisville-texas/la-quinta-dallas-lewisville/overview,33.018193986741,-96.984797034871
2550 State Hwy 121,Euless,TX,76039,8178648663,https://www.wyndhamhotels.com/laquinta/euless-texas/la-quinta-dfw-west-glade-parks/overview,32.872950985503,-97.09873098745
5303 Katy Mills Circle,Katy,TX,77494,2816653883,https://www.wyndhamhotels.com/laquinta/katy-texas/la-quinta-inn-and-suites-katy/overview,29.774981005944,-95.812605980696
2901 63rd St,Galveston,TX,77551,4092201406,https://www.wyndhamhotels.com/laquinta/galveston-texas/la-quinta-inn-and-suites-galveston-west-seawall/overview,29.267063223022,-94.829019475868
1195 Earl Rudder Freeway,College Station,TX,77845,9797045570,https://www.wyndhamhotels.com/laquinta/college-station-texas/la-quinta-inn-and-suites-college-station-north/overview,30.636295924323,-96.30560826772
1943 Medical Dr.,Lakeway,TX,78734,5122631300,https://www.wyndhamhotels.com/laquinta/lakeway-texas/la-quinta-inn-and-suites-lakeway/overview,30.347734010009,-97.966657028518
2900 Gulf Freeway,Texas City,TX,77591,4099275639,https://www.wyndhamhotels.com/laquinta/texas-city-texas/la-quinta-inn-suites-texas-city-i-45/overview,29.408412007339,-95.036057017295
508 N I 35E,Red Oak,TX,75154,4698071619,https://www.wyndhamhotels.com/laquinta/red-oak-texas/la-quinta-inn-and-suites-red-oak-tx-ih-35e/overview,32.412338074133,-96.871829300485
836 West I-10,Fort Stockton,TX,79735,4322990249,https://www.wyndhamhotels.com/laquinta/fort-stockton-texas/la-quinta-inn-and-suites-fort-stockton-northeast/overview,30.909207989885,-102.886028021055
8687 E R L Thornton Fwy,Dallas,TX,75228,9726857676,https://www.wyndhamhotels.com/laquinta/dallas-texas/la-quinta-inn-and-suites-dallas-fairpark/overview,32.796269018574,-96.695017040099
9595 John W Elliott Dr,Frisco,TX,75033,4692690097,https://www.wyndhamhotels.com/laquinta/frisco-texas/la-quinta-inn-suites-dallas-frisco-stadium/overview,33.157747016827,-96.829783961563
3900 East Palm Valley Blvd,Round Rock,TX,78665,7373466652,https://www.wyndhamhotels.com/laquinta/round-rock-texas/la-quinta-inn-and-suites-round-rock-east-near-kalahari/overview,30.529211182394,-97.623518760141
5921 South Padre Island Dr.,Corpus Christi,TX,78412,3619852200,https://www.wyndhamhotels.com/laquinta/corpus-christi-texas/lq-corpus-christi-southeast/overview,27.702448995645,-97.364786005283
7502 NW Loop 410,San Antonio,TX,78245,2105495424,https://www.wyndhamhotels.com/laquinta/san-antonio-texas/la-quinta-inn-and-suites-san-antonio-seaworld-lafb/overview,29.446783414589,-98.634622645522
152 Crossroads Parkway,Terrell,TX,75160,4696142905,https://www.wyndhamhotels.com/laquinta/terrell-texas/la-quinta-inn-and-suites-terrell/overview,32.717729999087,-96.319989988729
1002 63rd st,Galveston,TX,77551,4092203600,https://www.wyndhamhotels.com/laquinta/galveston-texas/la-quinta-inn-and-suites-galveston-north-at-i-45/overview,29.287685989071,-94.83992299756
3470 Joe Battle Blvd.,El Paso,TX,79938,9158819854,https://www.wyndhamhotels.com/laquinta/el-paso-texas/la-quinta-inn-and-suites-el-paso-east-loop-375/overview,31.795839002261,-106.266430041877
1408 Town Center Drive Bld 1,Pflugerville,TX,78660,5122124008,https://www.wyndhamhotels.com/laquinta/pflugerville-texas/la-quinta-inn-and-suites-pflugerville/overview,30.467128018135,-97.600646977127
6401 62nd Street,Lubbock,TX,79424,8062241370,https://www.wyndhamhotels.com/laquinta/lubbock-texas/la-quinta-inn-and-suites-lubbock-southwest/overview,33.536370994307,-101.954304967986
273 East Cantu Road Bld 2,Del Rio,TX,78840,8304886226,https://www.wyndhamhotels.com/laquinta/del-rio-texas/la-quinta-inn-and-suites-del-rio/overview,29.38578554459,-100.90529155823
106 Canyon Ridge Dr,Austin,TX,78753,5123665725,https://www.wyndhamhotels.com/laquinta/austin-texas/la-quinta-inn-and-suites-austin-parmer-tech-ridge/overview,30.399476833571,-97.668708362515
2540 University Drive,Fairborn,OH,45324,9374902000,https://www.wyndhamhotels.com/laquinta/fairborn-ohio/la-quinta-fairborn-wright-patterson/overview,39.774894877232,-84.064350698173
9918 Escort Dr.,Mason,OH,45040,5134591111,https://www.wyndhamhotels.com/laquinta/mason-ohio/la-quinta-cincinnati-ne-mason/overview,39.294070019058,-84.317246966212
12150 Springfield Pike,Springdale,OH,45246,5132068740,https://www.wyndhamhotels.com/laquinta/springdale-ohio/la-quinta-inn-cincinnati-north/overview,39.300785013149,-84.483742995413
4222 W 150 St.,Cleveland,OH,44135,2162518500,https://www.wyndhamhotels.com/laquinta/cleveland-ohio/la-quinta-cleveland-airport-north/overview,41.439750018269,-81.804349963462
25105 Ctry Club Blvd.,North Olmsted,OH,44070,4407344477,https://www.wyndhamhotels.com/laquinta/north-olmsted-ohio/la-quinta-cleveland-airport-west/overview,41.413419987733,-81.905204961964
6145 Park Ctr. Circle,Dublin,OH,43017,6147928300,https://www.wyndhamhotels.com/laquinta/dublin-ohio/la-quinta-inn-columbus-dublin/overview,40.076995012386,-83.13377496001
120 Stander Ave,Mansfield,OH,44903,4197740005,https://www.wyndhamhotels.com/laquinta/mansfield-ohio/la-quinta-mansfield-oh/overview,40.693244017052,-82.509579994953
2447 Brice Road,Reynoldsburg,OH,43068,6148666456,https://www.wyndhamhotels.com/laquinta/reynoldsburg-ohio/la-quinta-inn-columbus-airport-area/overview,39.936621016793,-82.831773982771
1154 Professional Dr.,Perrysburg,OH,43551,4198720000,https://www.wyndhamhotels.com/laquinta/perrysburg-ohio/la-quinta-inn-toledo-perrysburg/overview,41.549349018163,-83.605852966945
11029 Dowlin Dr,Cincinnati,OH,45241,5137710300,https://www.wyndhamhotels.com/laquinta/cincinnati-ohio/la-quinta-cincinnati-sharonville/overview,39.272002982568,-84.439011041279
268 E. Highland Road,Macedonia,OH,44056,3304685400,https://www.wyndhamhotels.com/laquinta/macedonia-ohio/la-quinta-cleveland-macedonia/overview,41.29880601135,-81.516920002884
6161 Quarry Ln.,Independence,OH,44131,2164471133,https://www.wyndhamhotels.com/laquinta/independence-ohio/la-quinta-inn-cleveland-independence/overview,41.393769998752,-81.648865994834
3304 Milan Rd.,Sandusky,OH,44870,4193700315,https://www.wyndhamhotels.com/laquinta/sandusky-ohio/la-quinta-inn-sandusky-near-cedar-point/overview,41.427885979148,-82.681388977301
3962 Jackpot Rd.,Grove City,OH,43123,6145396200,https://www.wyndhamhotels.com/laquinta/grove-city-ohio/la-quinta-columbus-grove-city/overview,39.881176990402,-83.045289974215
5510 Trabue Rd.,Columbus,OH,43228,6148788844,https://www.wyndhamhotels.com/laquinta/columbus-ohio/la-quinta-columbus-west-hilliard/overview,39.980937018982,-83.146171962445
2613 S Vista Avenue,Boise,ID,83705,2083880800,https://www.wyndhamhotels.com/laquinta/boise-idaho/la-quinta-boise-airport/overview,43.578560000089,-116.214512026037
1440 Bench Rd.,Pocatello,ID,83201,2082347500,https://www.wyndhamhotels.com/laquinta/pocatello-idaho/la-quinta-pocatello/overview,42.900310015725,-112.432770986311
7965 W Emerald St,Boise,ID,83704,2083787000,https://www.wyndhamhotels.com/laquinta/boise-idaho/la-quinta-boise-towne-square/overview,43.610425020387,-116.281171960887
2501 S 25th E,Ammon,ID,83406,2085522500,https://www.wyndhamhotels.com/laquinta/ammon-idaho/la-quinta-idaho-falls-ammon/overview,43.475453999581,-111.98179802484
333 Ironwood Drive,Coeur DAlene,ID,83814,2082861224,https://www.wyndhamhotels.com/laquinta/coeur-dalene-idaho/la-quinta-coeur-dalene/overview,47.69692698852,-116.790602997314
185 Warbonnet Dr.,Moscow,ID,83843,2088825365,https://www.wyndhamhotels.com/laquinta/moscow-idaho/la-quinta-moscow-pullman/overview,46.734349018305,-117.039392970986
800 S Allen Street,Meridian,ID,83642,2082882100,https://www.wyndhamhotels.com/laquinta/meridian-idaho/la-quinta-meridian-idaho/overview,43.597671326062,-116.356493419202
901 Specht Avenue,Caldwell,ID,83605,2086140256,https://www.wyndhamhotels.com/laquinta/caldwell-idaho/la-quinta-inn-caldwell/overview,43.661804997205,-116.661406856338
539 Pole Line Road,Twin Falls,ID,83301,2087369600,https://www.wyndhamhotels.com/laquinta/twin-falls-idaho/la-quinta-twin-falls/overview,42.592826016523,-114.468750019776
7210 Saddlerack Street,Knoxville,TN,37914,8656335100,https://www.wyndhamhotels.com/laquinta/knoxville-tennessee/la-quinta-knoxville-east/overview,35.998801982961,-83.774825010344
7051 McCutcheon Road,Chattanooga,TN,37421,4238992300,https://www.wyndhamhotels.com/laquinta/chattanooga-tennessee/la-quinta-chattanooga-hamilton-place/overview,35.046786007028,-85.154883994327
6650 Ringgold Road,East Ridge,TN,37412,4237603120,https://www.wyndhamhotels.com/laquinta/east-ridge-tennessee/la-quinta-chattanooga-east-ridge/overview,34.98939901357,-85.20073099304
12400 Hwy 72 North,Loudon,TN,37774,8656570050,https://www.wyndhamhotels.com/laquinta/loudon-tennessee/la-quinta-loudon/overview,35.733130982021,-84.389911025944
1236 Primacy Parkway,Memphis,TN,38119,9013740330,https://www.wyndhamhotels.com/laquinta/memphis-tennessee/la-quinta-memphis-primacy-parkway/overview,35.097913018008,-89.86185404
1317 Kirby Rd.,Knoxville,TN,37909,8652486768,https://www.wyndhamhotels.com/laquinta/knoxville-tennessee/la-quinta-knoxville-central-papermill/overview,35.945839223803,-83.999498548697
531 Donelson Pike,Nashville,TN,37214,6158853100,https://www.wyndhamhotels.com/laquinta/nashville-tennessee/la-quinta-nashville-airport/overview,36.146337015622,-86.665320967634
130 Interstate Drive NW,Cleveland,TN,37312,4238137300,https://www.wyndhamhotels.com/laquinta/cleveland-tennessee/la-quinta-cleveland-tn/overview,35.19400500003,-84.88982399222
126 Cusick Road,Alcoa,TN,37701,8655186365,https://www.wyndhamhotels.com/laquinta/alcoa-tennessee/la-quinta-knoxville-airport/overview,35.811586014839,-83.982448020942
7534 Conner Rd.,Powell,TN,37849,8659477500,https://www.wyndhamhotels.com/laquinta/powell-tennessee/la-quinta-knoxville-north-i-75/overview,36.051514011832,-83.99838797003
2537 Highwood Blvd.,Smyrna,TN,37167,6152208845,https://www.wyndhamhotels.com/laquinta/smyrna-tennessee/la-quinta-smyrna-tn-nashville/overview,35.969469009884,-86.568928997297
310 Union Ave.,Memphis,TN,38103,9015222383,https://www.wyndhamhotels.com/laquinta/memphis-tennessee/la-quinta-memphis-downtown/overview,35.14162099694,-90.046330005883
120 S Cartwright Crt,Goodlettsville,TN,37072,6158511891,https://www.wyndhamhotels.com/laquinta/goodlettsville-tennessee/la-quinta-goodlettsville-nashville/overview,36.322343990357,-86.706238988184
311 Browns Ferry Rd.,Chattanooga,TN,37419,4235514100,https://www.wyndhamhotels.com/laquinta/chattanooga-tennessee/la-quinta-chattanooga-lookout-mtn/overview,35.030333001646,-85.363011008763
10150 Airport Parkway,Kingsport,TN,37663,4233230500,https://www.wyndhamhotels.com/laquinta/kingsport-tennessee/la-quinta-kingsport-tricities-airport/overview,36.504597997528,-82.431882015631
4311 Sidco Drive,Nashville,TN,37204,6158346900,https://www.wyndhamhotels.com/laquinta/nashville-tennessee/la-quinta-inn-nashville-south/overview,36.084141994866,-86.762472003122
2839 New Brunswick Rd.,Memphis,TN,38133,9013772772,https://www.wyndhamhotels.com/laquinta/memphis-tennessee/la-quinta-memphis-wolfchase/overview,35.20327898916,-89.778539012083
140 Dixie Ave.,Lebanon,TN,37090,6154701001,https://www.wyndhamhotels.com/laquinta/lebanon-tennessee/la-quinta-lebanon/overview,36.181297011758,-86.301786008431
2428 Winfield Dunn Pkwy,Sevierville,TN,37764,8659333339,https://www.wyndhamhotels.com/laquinta/sevierville-tennessee/la-quinta-sevierville-kodak/overview,35.942220993313,-83.582937011301
2370 North Highland,Jackson,TN,38305,7316641800,https://www.wyndhamhotels.com/laquinta/jackson-tennessee/la-quinta-jackson/overview,35.668801006707,-88.828064971058
4207 Franklin Common Crt.,Franklin,TN,37067,6157917700,https://www.wyndhamhotels.com/laquinta/franklin-tennessee/la-quinta-nashville-franklin/overview,35.91150001898,-86.823493012611
2345 Atrium Way,Nashville,TN,37214,6157030012,https://www.wyndhamhotels.com/laquinta/nashville-tennessee/la-quinta-nashville-airport-opryland/overview,36.155167015342,-86.691167990999
1131 S. Jefferson Ave.,Cookeville,TN,38501,9316505330,https://www.wyndhamhotels.com/laquinta/cookeville-tennessee/la-quinta-cookeville/overview,36.13292001939,-85.504732982025
219 Emert St.,Pigeon Forge,TN,37863,8654293010,https://www.wyndhamhotels.com/laquinta/pigeon-forge-tennessee/la-quinta-inn-and-suites-pigeon-forge-dollywood/overview,35.78217098293,-83.552744976968
2979 Millbranch Rd.,Memphis,TN,38116,9017919200,https://www.wyndhamhotels.com/laquinta/memphis-tennessee/la-quinta-memphis-airport-graceland/overview,35.067618011994,-90.007493966263
125 Community Center Drive,Pigeon Forge,TN,37863,8659086633,https://www.wyndhamhotels.com/laquinta/pigeon-forge-tennessee/la-quinta-pigeon-forge/overview,35.806317988693,-83.579879963575
5000 New Country Dr.,Hixson,TN,37343,4233082333,https://www.wyndhamhotels.com/laquinta/hixson-tennessee/la-quinta-chattanooga-north-hixson/overview,35.120419014767,-85.240951974523
251 Holiday Dr.,Clarksville,TN,37040,9319060606,https://www.wyndhamhotels.com/laquinta/clarksville-tennessee/la-quinta-clarksville/overview,36.595885011645,-87.280490969904
315 Interstate Drive,Nashville,TN,37213,6152084186,https://www.wyndhamhotels.com/laquinta/nashville-tennessee/la-quinta-inn-and-suites-nashville-downtown-stadium/overview,36.167741001662,-86.766255007482
120 Hospitality Blvd,Manchester,TN,37355,9314504005,https://www.wyndhamhotels.com/laquinta/manchester-tennessee/la-quinta-inn-and-suites-manchester-arnold-afb/overview,35.458306020805,-86.047503960341
1225 Cowart Street,Chattanooga,TN,37402,4234179080,https://www.wyndhamhotels.com/laquinta/chattanooga-tennessee/la-quinta-inn-suites-chattanooga-downtown-south/overview,35.040165015981,-85.308931975304
2051 Consulate Dr.,Orlando,FL,32837,4072400500,https://www.wyndhamhotels.com/laquinta/orlando-florida/la-quinta-orlando-south/overview,28.428988004303,-81.405746965392
4686 Lenoir Avenue South,Jacksonville,FL,32216,9042960703,https://www.wyndhamhotels.com/laquinta/jacksonville-florida/la-quinta-jacksonville-butler-blvd/overview,30.247985003632,-81.597544020786
3 Miracle Strip Parkway SW,Fort Walton Beach,FL,32548,8502441500,https://www.wyndhamhotels.com/laquinta/fort-walton-beach-florida/la-quinta-fort-walton-beach/overview,30.404567001576,-86.614013997193
999 West Cypress Creek Road,Fort Lauderdale,FL,33309,9544917666,https://www.wyndhamhotels.com/laquinta/fort-lauderdale-florida/la-quinta-ft-lauderdale-cypress-creek/overview,26.20328969124,-80.157763592819
7401 N.W. 36th Street,Miami,FL,33166,3055999902,https://www.wyndhamhotels.com/laquinta/miami-florida/la-quinta-inn-miami-airport-north/overview,25.810035996051,-80.316831041275
816 N. Atlantic Ave.,Daytona Beach,FL,32118,3869440060,https://www.wyndhamhotels.com/laquinta/daytona-beach-florida/la-quinta-oceanfront-daytona-beach/overview,29.239763002489,-81.013738010551
1275 N. Atlantic Avenue,Cocoa Beach,FL,32931,3217832252,https://www.wyndhamhotels.com/laquinta/cocoa-beach-florida/la-quinta-inn-cocoa-beach-port-canaveral/overview,28.333249990052,-80.611036010371
2905 North Monroe,Tallahassee,FL,32303,8503857172,https://www.wyndhamhotels.com/laquinta/tallahassee-florida/la-quinta-inn-tallahassee-north/overview,30.482006985919,-84.305261012309
1024 Lakeland Park Center Drive,Lakeland,FL,33809,8638592866,https://www.wyndhamhotels.com/laquinta/lakeland-florida/la-quinta-lakeland-west/overview,28.087486009154,-81.970948000425
1030 E. 23rd Street,Panama City,FL,32405,8509140022,https://www.wyndhamhotels.com/laquinta/panama-city-florida/la-quinta-panama-city/overview,30.189025984234,-85.642244976779
11805 Research Parkway,Orlando,FL,32826,4077376075,https://www.wyndhamhotels.com/laquinta/orlando-florida/la-quinta-orlando-ucf/overview,28.588761998615,-81.207259977799
4315 Lakeland Park Drive,Lakeland,FL,33809,8638150606,https://www.wyndhamhotels.com/laquinta/lakeland-florida/la-quinta-lakeland-east/overview,28.09689800632,-81.953751017318
8504 Universal Boulevard,Orlando,FL,32819,4073451365,https://www.wyndhamhotels.com/laquinta/orlando-florida/la-quinta-orlando-i-drive-conv-center/overview,28.441150020082,-81.468712995513
7500 US Hwy 19 N,Pinellas Park,FL,33781,7275455611,https://www.wyndhamhotels.com/laquinta/pinellas-park-florida/la-quinta-inn-tampa-bay-pinellas-park-clearwater/overview,27.840131981224,-82.685148009418
7115 Coastal Palms Boulevard,Panama City Beach,FL,32408,8502343133,https://www.wyndhamhotels.com/laquinta/panama-city-beach-florida/la-quinta-pcb-coastal-palms/overview,30.174386990338,-85.761552986578
9202 N 30th St.,Tampa,FL,33612,8135862365,https://www.wyndhamhotels.com/laquinta/tampa-florida/la-quinta-inn-tampa-near-busch-gardens/overview,28.033673017301,-82.427011962248
3100 N. University Dr.,Coral Springs,FL,33065,9543442200,https://www.wyndhamhotels.com/laquinta/coral-springs-florida/la-quinta-coral-springs-south/overview,26.268403011499,-80.250950958697
3701 East Fowler Ave,Tampa,FL,33612,8139107500,https://www.wyndhamhotels.com/laquinta/tampa-florida/la-quinta-usf-near-busch-gardens/overview,28.05358900598,-82.418100993344
7931 Daetwyler Drive,Orlando,FL,32812,4078579215,https://www.wyndhamhotels.com/laquinta/orlando-florida/la-quinta-inn-orlando-airport-west/overview,28.452065982135,-81.33773502956
100 Southwest 12th Ave.,Deerfield Beach,FL,33442,9546370458,https://www.wyndhamhotels.com/laquinta/deerfield-beach-florida/la-quinta-deerfield-beach-i-95/overview,26.31618501447,-80.119497990291
13600 NW 2nd St.,Sunrise,FL,33325,9548459929,https://www.wyndhamhotels.com/laquinta/sunrise-florida/la-quinta-sunrise/overview,26.12339298526,-80.33185702764
8730 N.W. 27th St,Miami,FL,33172,7863104298,https://www.wyndhamhotels.com/laquinta/miami-florida/la-quinta-miami-airport-west/overview,25.798952018748,-80.338721973979
8101 Peters Road,Plantation,FL,33324,9544766047,https://www.wyndhamhotels.com/laquinta/plantation-florida/la-quinta-ft-lauderdale-plantation/overview,26.106479017114,-80.255351038769
4115 US Hwy. 27 South,Sebring,FL,33870,8635937488,https://www.wyndhamhotels.com/laquinta/sebring-florida/la-quinta-sebring/overview,27.460514999675,-81.431370024305
2620 North 26th Avenue,Hollywood,FL,33020,9549222295,https://www.wyndhamhotels.com/laquinta/hollywood-florida/la-quinta-ft-lauderdale-airport/overview,26.037831020559,-80.159550998434
1060 Greenwood Boulevard,Lake Mary,FL,32746,4078059901,https://www.wyndhamhotels.com/laquinta/lake-mary-florida/la-quinta-orlando-lake-mary/overview,28.748609669855,-81.36458234925
3530 S.W. 36th Avenue,Ocala,FL,34474,3528611137,https://www.wyndhamhotels.com/laquinta/ocala-florida/la-quinta-ocala/overview,29.150357893272,-82.183157169345
9521 Market Place Rd.,Fort Myers,FL,33912,9415850973,https://www.wyndhamhotels.com/laquinta/fort-myers-florida/la-quinta-inn-and-suites-fort-myers-i-75/overview,26.54983622327,-81.797549725416
28600 Trails Edge Boulevard,Bonita Springs,FL,34134,2394959255,https://www.wyndhamhotels.com/laquinta/bonita-springs-florida/la-quinta-bonita-springs-naples-north/overview,26.320191228911,-81.806947682894
34 Fishermans Way,Jupiter,FL,33477,5612951784,https://www.wyndhamhotels.com/laquinta/jupiter-florida/la-quinta-inn-jupiter/overview,26.93544098499,-80.086717037524
3501 NW 42nd Ave.,Miami,FL,33142,3058711777,https://www.wyndhamhotels.com/laquinta/miami-florida/la-quinta-miami-airport-east/overview,25.805846008382,-80.262258984271
351 W. Hillsboro Boulevard,Deerfield Beach,FL,33441,7542123491,https://www.wyndhamhotels.com/laquinta/deerfield-beach-florida/la-quinta-east-deerfield-beach-boca-raton/overview,26.319926989414,-80.109417997352
4811 U.S. hwy. 301 N,Tampa,FL,33610,8136260885,https://www.wyndhamhotels.com/laquinta/tampa-florida/la-quinta-tampa-fairgrounds-casino/overview,27.988615642958,-82.358755385356
2655 Crossroads Pkwy,Fort Pierce,FL,34945,7722325088,https://www.wyndhamhotels.com/laquinta/fort-pierce-florida/la-quinta-ft-pierce/overview,27.417463994314,-80.396706974319
1791 Dunlawton Ave,Port Orange,FL,32129,3867563440,https://www.wyndhamhotels.com/laquinta/port-orange-florida/la-quinta-port-orange-daytona/overview,29.107665004724,-81.028080033617
17710 W. Panama CTY,Panama City Beach,FL,32413,8504831158,https://www.wyndhamhotels.com/laquinta/panama-city-beach-florida/la-quinta-pcb-pier-park-area/overview,30.236809730792,-85.905191847593
10821 Caribbean Boulevard,Miami,FL,33189,3059096883,https://www.wyndhamhotels.com/laquinta/miami-florida/la-quinta-miami-cutler-bay/overview,25.579410989573,-80.366356019101
7200 George T. Edwards Dr.,Melbourne,FL,32940,3212429400,https://www.wyndhamhotels.com/laquinta/melbourne-florida/la-quinta-melbourne-viera/overview,28.231639991622,-80.721421987154
185 Bedzel Circle,Naples,FL,34104,2393528400,https://www.wyndhamhotels.com/laquinta/naples-florida/la-quinta-naples-east-i-75/overview,26.156648982389,-81.687714020576
13651 NW 2nd Street,Sunrise,FL,33325,9548461200,https://www.wyndhamhotels.com/laquinta/sunrise-florida/la-quinta-sawgrass/overview,26.124448015413,-80.331481015464
4620 W Gandy Blvd.,Tampa,FL,33611,8138356262,https://www.wyndhamhotels.com/laquinta/tampa-florida/la-quinta-tampa-bay-area-tampa-south/overview,27.893003014798,-82.52359302832
250 Outlet Mall Blvd.,St. Augustine,FL,32084,9042092580,https://www.wyndhamhotels.com/laquinta/st-augustine-florida/la-quinta-st-augustine/overview,29.918617992624,-81.407765998229
5621 Major Boulevard,Orlando,FL,32819,4073133100,https://www.wyndhamhotels.com/laquinta/orlando-florida/la-quinta-orlando-universal-area/overview,28.481242004075,-81.452832977033
5727 N Federal Highway,Fort Lauderdale,FL,33308,9544912500,https://www.wyndhamhotels.com/laquinta/fort-lauderdale-florida/la-quinta-by-wyndham-ft-lauderdale-pompano-beach/overview,26.198951986711,-80.110896984167
5981 Okeechobee Blvd.,West Palm Beach,FL,33417,5616973388,https://www.wyndhamhotels.com/laquinta/west-palm-beach-florida/la-quinta-inn-west-palm-beach-florida-turnpike/overview,26.708118993187,-80.134841986063
5070 FL 7,Fort Lauderdale,FL,33319,9544846909,https://www.wyndhamhotels.com/laquinta/fort-lauderdale-florida/la-quinta-fort-lauderdale-tamarac/overview,26.188190000219,-80.202890969907
20091 Summerlin Road,Fort Myers,FL,33908,9412825875,https://www.wyndhamhotels.com/laquinta/fort-myers-florida/la-quinta-inn-and-suites-ft-myers-sanibel-gateway/overview,26.492873144566,-81.969051259555
1803 North Tamiami Trail,Sarasota,FL,34234,9414870834,https://www.wyndhamhotels.com/laquinta/sarasota-florida/la-quinta-sarasota-downtown/overview,27.353676831049,-82.547626124019
1910 Palm Beach Lakes Blvd.,West Palm Beach,FL,33409,5616898540,https://www.wyndhamhotels.com/laquinta/west-palm-beach-florida/la-quinta-west-palm-beach-airport/overview,26.716581991276,-80.090630967212
7925 NW 154th St.,Miami,FL,33016,3058218274,https://www.wyndhamhotels.com/laquinta/miami-florida/la-quinta-miami-lakes/overview,25.914015013685,-80.329377995957
3800 W. Commercial Blvd.,Fort Lauderdale,FL,33309,9544857900,https://www.wyndhamhotels.com/laquinta/fort-lauderdale-florida/la-quinta-inn-ft-lauderdale-tamarac-east/overview,26.185648984362,-80.19982797103
1555 5th Avenue South,Naples,FL,34102,2397480065,https://www.wyndhamhotels.com/laquinta/naples-florida/la-quinta-naples-downtown/overview,26.139629988996,-81.783396965723
7901 SW 6th Street,Plantation,FL,33324,9544593504,https://www.wyndhamhotels.com/laquinta/plantation-florida/la-quinta-plantation-at-sw-6th-st/overview,26.11431198945,-80.257240990297
3826 W. Waters Ave.,Tampa,FL,33614,8134909090,https://www.wyndhamhotels.com/laquinta/tampa-florida/la-quinta-tampa-central/overview,28.024305989046,-82.506382969444
7160 North Frontage Road,Orlando,FL,32812,4072405000,https://www.wyndhamhotels.com/laquinta/orlando-florida/la-quinta-orlando-airport-north/overview,28.458987003406,-81.313594980777
5922 I-10,Pensacola,FL,32514,8504740411,https://www.wyndhamhotels.com/laquinta/pensacola-florida/la-quinta-inn-pensacola/overview,30.503068195678,-87.207599252743
4730 W Spruce St,Tampa,FL,33607,8132870440,https://www.wyndhamhotels.com/laquinta/tampa-florida/la-quinta-inn-tampa-airport-stadium-westshore/overview,27.959075001049,-82.525813981204
21338 U.S. 19 N,Clearwater,FL,33765,7277991565,https://www.wyndhamhotels.com/laquinta/clearwater-florida/la-quinta-inn-clearwater-central/overview,27.966326981767,-82.731200029483
3301 Ulmerton Rd,Clearwater,FL,33762,7274917934,https://www.wyndhamhotels.com/laquinta/clearwater-florida/la-quinta-st-pete-clearwater-airport/overview,27.894842004355,-82.67838599285
3701 N University Drive,Coral Springs,FL,33065,9547539000,https://www.wyndhamhotels.com/laquinta/coral-springs-florida/la-quinta-inn-and-suites-coral-springs-university-dr/overview,26.275705996098,-80.249612033483
310 Grand Regency Blvd,Brandon,FL,33510,8136430574,https://www.wyndhamhotels.com/laquinta/brandon-florida/la-quinta-tampa-brandon-regency-park/overview,27.943613993909,-82.327333028581
3199 Hartley Rd.,Jacksonville,FL,32257,9042689999,https://www.wyndhamhotels.com/laquinta/jacksonville-florida/la-quinta-jacksonville-mandarin/overview,30.183747983623,-81.626677001653
602 S Falkenburg Rd.,Tampa,FL,33619,8133242425,https://www.wyndhamhotels.com/laquinta/tampa-florida/la-quinta-tampa-brandon-west/overview,27.944582983826,-82.334167967706
5825 International Dr.,Orlando,FL,32819,4073514100,https://www.wyndhamhotels.com/laquinta/orlando-florida/la-quinta-inn-orlando-international-drive-north/overview,28.462860993325,-81.45982700468
1 Hendry Avenue,Cocoa Beach,FL,32931,3217843126,https://www.wyndhamhotels.com/laquinta/cocoa-beach-florida/la-quinta-cocoa-beach-oceanfront/overview,28.368357004769,-80.602872036678
5000 Lake Boulevard,Clearwater,FL,33760,7272999800,https://www.wyndhamhotels.com/laquinta/clearwater-florida/la-quinta-clearwater-south/overview,27.866808016722,-82.702495028592
17301 Dona Michelle Dr.,Tampa,FL,33647,8139717676,https://www.wyndhamhotels.com/laquinta/tampa-florida/la-quinta-tampa-north-i-75/overview,28.123484020179,-82.37099796644
6638 4th Street N,St. Petersburg,FL,33702,7275251800,https://www.wyndhamhotels.com/laquinta/st-petersburg-florida/la-quinta-st-petersburg-northeast/overview,27.833508014601,-82.639102024324
908 NW 69 Terrace,Gainesville,FL,32605,3523635704,https://www.wyndhamhotels.com/laquinta/gainesville-florida/la-quinta-gainesville-fl/overview,29.661338995053,-82.416851000123
12839 Hwy 98 W,Miramar Beach,FL,32550,8502796500,https://www.wyndhamhotels.com/laquinta/miramar-beach-florida/la-quinta-miramar-beach-destin/overview,30.384184015162,-86.385979962715
165 NW Cali Drive,Lake City,FL,32055,3864005752,https://www.wyndhamhotels.com/laquinta/lake-city-florida/la-quinta-inn-and-suite-lake-city/overview,30.181734985757,-82.68492798446
11545 International Drive,Orlando,FL,32821,4079101365,https://www.wyndhamhotels.com/laquinta/orlando-florida/la-quinta-inn-and-suites-orlando-idrive-theme-parks/overview,28.397295986487,-81.461147992621
6323 Ritchie Hwy,Glen Burnie,MD,21061,4106364300,https://www.wyndhamhotels.com/laquinta/glen-burnie-maryland/la-quinta-baltimore-south-glen-burnie/overview,39.202957013251,-76.61322702496
2112B Emmorton Park Rd.,Edgewood,MD,21040,4106766969,https://www.wyndhamhotels.com/laquinta/edgewood-maryland/la-quinta-inn-suites-bel-air-i-95-exit-77a/overview,39.453413015908,-76.309948980953
200 W. Saratoga St.,Baltimore,MD,21201,4104495444,https://www.wyndhamhotels.com/laquinta/baltimore-maryland/la-quinta-baltimore-downtown/overview,39.293126007213,-76.618317019482
22769 Three Notch Road,California,MD,20619,3016789847,https://www.wyndhamhotels.com/laquinta/california-maryland/la-quinta-lexington-park-patuxent/overview,38.292234986225,-76.497159961843
11770 Business Park Dr.,Waldorf,MD,20601,3016450022,https://www.wyndhamhotels.com/laquinta/waldorf-maryland/la-quinta-inn-waldorf/overview,38.639860003553,-76.898458999069
55 Hampton Park Blvd.,Capitol Heights,MD,20743,3019714995,https://www.wyndhamhotels.com/laquinta/capitol-heights-maryland/la-quinta-dc-metro-capital-beltway/overview,38.888731491234,-76.853816815118
106 32nd St.,Ocean City,MD,21842,4102895762,https://www.wyndhamhotels.com/laquinta/ocean-city-maryland/la-quinta-ocean-city/overview,38.36103100719,-75.072892976493
4 Philadelphia Ct.,Baltimore,MD,21237,4105748100,https://www.wyndhamhotels.com/laquinta/baltimore-maryland/la-quinta-baltimore-n-white-marsh/overview,39.338336987113,-76.490591986333
1734 W Nursery Road,Linthicum,MD,21090,4108592333,https://www.wyndhamhotels.com/laquinta/linthicum-maryland/la-quinta-baltimore-bwi-airport/overview,39.197263982704,-76.684704039565
7300 Crestmount Road,Jessup,MD,20794,4107991500,https://www.wyndhamhotels.com/laquinta/jessup-maryland/la-quinta-columbia-fort-meade/overview,39.171398016238,-76.788849018881
793 W Bel Air Ave.,Aberdeen,MD,21001,4106183009,https://www.wyndhamhotels.com/laquinta/aberdeen-maryland/la-quinta-aberdeen-apg/overview,39.52358400427,-76.188080970285
304 Belle Hill Rd.,Elkton,MD,21921,4106209494,https://www.wyndhamhotels.com/laquinta/elkton-maryland/la-quinta-newark-elkton/overview,39.63732299378,-75.803301993666
300 South Salisbury Blvd.,Salisbury,MD,21801,4109942729,https://www.wyndhamhotels.com/laquinta/salisbury-maryland/la-quinta-salisbury/overview,38.364113996906,-75.596776006556
570 Raptor road,Fruita,CO,81521,9708588850,https://www.wyndhamhotels.com/laquinta/fruita-colorado/la-quinta-fruita/overview,39.152830005229,-108.739451984288
600 Wapiti Court,Rifle,CO,81650,9703613390,https://www.wyndhamhotels.com/laquinta/rifle-colorado/la-quinta-rifle/overview,39.524058000894,-107.773014021932
8155 N Academy Blvd.,Colorado Springs,CO,80920,7198886167,https://www.wyndhamhotels.com/laquinta/colorado-springs-colorado/la-quinta-colorado-springs-north/overview,38.95056998774,-104.804097984361
2761 Crossroads Boulevard,Grand Junction,CO,81506,9702412929,https://www.wyndhamhotels.com/laquinta/grand-junction-colorado/la-quinta-grand-junction/overview,39.114585979429,-108.541063986971
4801 North Elizabeth Street,Pueblo,CO,81008,7195423500,https://www.wyndhamhotels.com/laquinta/pueblo-colorado/la-quinta-pueblo/overview,38.323866989614,-104.616946012069
125 Mercury Village Dr.,Durango,CO,81303,9702598400,https://www.wyndhamhotels.com/laquinta/durango-colorado/la-quinta-durango/overview,37.239758003149,-107.869317982285
4460 Peoria Street,Denver,CO,80239,3033732525,https://www.wyndhamhotels.com/laquinta/denver-colorado/la-quinta-denver-gateway-park/overview,39.777060006641,-104.845725030101
4385 Sinton Road,Colorado Springs,CO,80907,7195285060,https://www.wyndhamhotels.com/laquinta/colorado-springs-colorado/la-quinta-inn-colorado-springs-garden-of-the-gods/overview,38.895509014323,-104.828321013985
3301 Youngfield Service Road,Golden,CO,80401,3032795565,https://www.wyndhamhotels.com/laquinta/golden-colorado/la-quinta-inn-denver-golden/overview,39.764329991194,-105.144492017638
6801 Tower Rd,Denver,CO,80249,3033710888,https://www.wyndhamhotels.com/laquinta/denver-colorado/la-quinta-denver-airport-dia/overview,39.82059598892,-104.773050995904
8701 Turnpike Drive,Westminster,CO,80031,3034259099,https://www.wyndhamhotels.com/laquinta/westminster-colorado/la-quinta-inn-denver-westminster/overview,39.853349993868,-105.051897971449
2750 Geyser Dr,Colorado Springs,CO,80906,7195274788,https://www.wyndhamhotels.com/laquinta/colorado-springs-colorado/la-quinta-colorado-springs-south-ap/overview,38.791524003628,-104.798044992982
560 Silverthorne Lane,Silverthorne,CO,80498,9703682230,https://www.wyndhamhotels.com/laquinta/silverthorne-colorado/la-quinta-silverthorne-summit-co/overview,39.630467979997,-106.065860989534
7190 West Hampden Avenue,Lakewood,CO,80227,3039699700,https://www.wyndhamhotels.com/laquinta/lakewood-colorado/la-quinta-denver-southwest-lakewood/overview,39.652240015404,-105.075604005286
1450 Cascade Ave.,Loveland,CO,80538,9706228600,https://www.wyndhamhotels.com/laquinta/loveland-colorado/la-quinta-loveland-estes-park/overview,40.407970007699,-105.130526006748
2833 Toupal Dr.,Trinidad,CO,81082,7198450102,https://www.wyndhamhotels.com/laquinta/trinidad-colorado/la-quinta-trinidad/overview,37.140342009785,-104.521718036626
9009 East Arapahoe Rd.,Greenwood Village,CO,80112,3037994555,https://www.wyndhamhotels.com/laquinta/greenwood-village-colorado/la-quinta-denver-englewood-tech-center/overview,39.596506017072,-104.884097969571
7077 South Clinton St,Greenwood Village,CO,80112,3036499969,https://www.wyndhamhotels.com/laquinta/greenwood-village-colorado/la-quinta-denver-tech-center/overview,39.588495013112,-104.879497981108
902 W Dillon Rd,Louisville,CO,80027,3036640100,https://www.wyndhamhotels.com/laquinta/louisville-colorado/la-quinta-denver-boulder-louisville/overview,39.958525989185,-105.16157601269
3155 Ingles Ln.,Steamboat Springs,CO,80487,9704392264,https://www.wyndhamhotels.com/laquinta/steamboat-springs-colorado/la-quinta-inn-steamboat-springs/overview,40.448222002223,-106.815167007416
3709 E Mulberry St.,Fort Collins,CO,80524,9704937800,https://www.wyndhamhotels.com/laquinta/fort-collins-colorado/la-quinta-inn-fort-collins/overview,40.579899982819,-105.007855009757
9041 Brighton Rd.,Henderson,CO,80640,8338589872,https://www.wyndhamhotels.com/laquinta/henderson-colorado/la-quinta-henderson-northeast-denver/overview,39.86108900507,-104.911170008085
124 W 6th Street,Glenwood Springs,CO,81601,9703734033,https://www.wyndhamhotels.com/laquinta/glenwood-springs-colorado/la-quinta-glenwood-springs/overview,39.55074899809,-107.328527982965
345 West 120th Ave.,Westminster,CO,80234,3032529800,https://www.wyndhamhotels.com/laquinta/westminster-colorado/la-quinta-inn-denver-northglenn/overview,39.914662986954,-104.991196983024
1500 S. Abilene Street,Aurora,CO,80012,3038470632,https://www.wyndhamhotels.com/laquinta/aurora-colorado/la-quinta-inn-and-suites-denver-aurora-medical-ctr/overview,39.688926809323,-104.827283837286
1200 Market Place,Limon,CO,80828,7198927440,https://www.wyndhamhotels.com/laquinta/limon-colorado/la-quinta-inn-and-suites-limon/overview,39.277131203455,-103.707395412277
5669 S Alkire Street,Littleton,CO,80127,7206873800,https://www.wyndhamhotels.com/laquinta/littleton-colorado/la-quinta-inn-and-suites-littleton-red-rocks/overview,39.614534987889,-105.148650028346
17111 Carlson Drive,Parker,CO,80134,7207163622,https://www.wyndhamhotels.com/laquinta/parker-colorado/la-quinta-inn-and-suites-denver-parker/overview,39.547591996169,-104.790997991707
5110 N. Port Washington Road,Glendale,WI,53217,4149648484,https://www.wyndhamhotels.com/laquinta/glendale-wisconsin/la-quinta-inn-milwaukee-glendale-hampton-av/overview,43.109831988397,-87.915523987224
7141 S 13th St.,Oak Creek,WI,53154,4147622266,https://www.wyndhamhotels.com/laquinta/oak-creek-wisconsin/la-quinta-inn-milwaukee-airport-oak-creek/overview,42.914913009347,-87.932176984815
4917 Main St.,Stevens Point,WI,54481,7153441900,https://www.wyndhamhotels.com/laquinta/stevens-point-wisconsin/la-quinta-stevens-point/overview,44.522956993674,-89.532078034027
15300 W Rock Ridge Rd.,New Berlin,WI,53151,2627170900,https://www.wyndhamhotels.com/laquinta/new-berlin-wisconsin/la-quinta-milwaukee-sw-new-berlin/overview,42.952257992212,-88.105106040884
3800 West College Ave,Appleton,WI,54914,9207347777,https://www.wyndhamhotels.com/laquinta/appleton-wisconsin/la-quinta-appleton-college-avenue/overview,44.262827981386,-88.461836990184
1886 Rath Lane,Oshkosh,WI,54902,9202334190,https://www.wyndhamhotels.com/laquinta/oshkosh-wisconsin/la-quinta-inn-oshkosh/overview,44.034001982787,-88.581407018277
5423 N Port Washington Road,Glendale,WI,53217,4149626767,https://www.wyndhamhotels.com/laquinta/glendale-wisconsin/la-quinta-milwaukee-bayshore-area/overview,43.115517014226,-87.917378986216
5217 E Ter Drive,Madison,WI,53718,6082450123,https://www.wyndhamhotels.com/laquinta/madison-wisconsin/la-quinta-madison-american-center/overview,43.143339987445,-89.290651981389
1910 Stewart Ave.,Wausau,WI,54401,7152038324,https://www.wyndhamhotels.com/laquinta/wausau-wisconsin/la-quinta-inn-wausau/overview,44.959601259306,-89.659697874291
2801 Hillside Drive,Delafield,WI,53018,2623951162,https://www.wyndhamhotels.com/laquinta/delafield-wisconsin/la-quinta-milwaukee-delafield/overview,43.048165991459,-88.371440008456
2932 Kohler Memorial Dr.,Sheboygan,WI,53081,9204572321,https://www.wyndhamhotels.com/laquinta/sheboygan-wisconsin/la-quinta-inn-sheboygan/overview,43.757079995124,-87.745505966128
444 Wisconsin Dells Parkway S.,Wisconsin Dells,WI,53965,6082539700,https://www.wyndhamhotels.com/laquinta/wisconsin-dells-wisconsin/la-quinta-inn-and-ste-wisconsin-dells-lake-delton/overview,43.587518997298,-89.785677962837
45 South East 32nd St.,Newport,OR,97365,5418677727,https://www.wyndhamhotels.com/laquinta/newport-oregon/la-quinta-newport/overview,44.614685868315,-124.049708053044
120 Arney Rd. NE,Woodburn,OR,97071,5039821727,https://www.wyndhamhotels.com/laquinta/woodburn-oregon/la-quinta-woodburn/overview,45.15182499548,-122.882770971806
890 Hawthorne Avenue SE,Salem,OR,97301,9713742851,https://www.wyndhamhotels.com/laquinta/salem-oregon/la-quinta-salem-or/overview,44.920586517509,-122.995527937541
61200 S Highway 97,Bend,OR,97702,5413882227,https://www.wyndhamhotels.com/laquinta/bend-oregon/la-quinta-inn-bend/overview,44.021864986989,-121.31524502361
4319 NW Yeon Avenue,Portland,OR,97210,5034979044,https://www.wyndhamhotels.com/laquinta/portland-oregon/la-quinta-portland-nw/overview,45.553085014947,-122.730499032294
11207 Norteast Holman Street,Portland,OR,97220,5034461737,https://www.wyndhamhotels.com/laquinta/portland-oregon/la-quinta-portland-airport/overview,45.568790983208,-122.546924037182
1777 Larue Dr.,Central Point,OR,97502,5416654141,https://www.wyndhamhotels.com/laquinta/central-point-oregon/la-quinta-central-point-medford/overview,42.377005001706,-122.901203028346
243 Northeast Morgan Lane,Grants Pass,OR,97526,5414720152,https://www.wyndhamhotels.com/laquinta/grants-pass-oregon/la-quinta-grants-pass/overview,42.46204200781,-123.319217005428
155 Day Island Rd.,Eugene,OR,97401,5413448335,https://www.wyndhamhotels.com/laquinta/eugene-oregon/la-quinta-eugene/overview,44.058357991305,-123.079862037245
3480 Hutton Street,Springfield,OR,97477,5416230254,https://www.wyndhamhotels.com/laquinta/springfield-oregon/la-quinta-inn-and-suites-springfield/overview,44.08363198586,-123.039841969982
65 West Orchard Park Drive,Greenville,SC,29615,8642338018,https://www.wyndhamhotels.com/laquinta/greenville-south-carolina/la-quinta-greenville-haywood/overview,34.858195993518,-82.338074018405
1561 21st Avenue North,Myrtle Beach,SC,29577,8439168801,https://www.wyndhamhotels.com/laquinta/myrtle-beach-south-carolina/la-quinta-myrtle-beach-broadway-area/overview,33.714283007995,-78.88914599963
1538 Horseshoe Drive,Columbia,SC,29223,8038496169,https://www.wyndhamhotels.com/laquinta/columbia-south-carolina/la-quinta-inn-columbia-ne-fort-jackson/overview,34.07607599817,-80.946674989977
1601 US Highway 17 North,North Myrtle Beach,SC,29582,8434384619,https://www.wyndhamhotels.com/laquinta/north-myrtle-beach-south-carolina/la-quinta-inn-north-myrtle-beach/overview,33.844525000939,-78.658274020375
7333 Garners Ferry Rd.,Columbia,SC,29209,8037649547,https://www.wyndhamhotels.com/laquinta/columbia-south-carolina/la-quinta-inn-columbia-se-fort-jackson/overview,33.969591001035,-80.950423963811
11 Ashley Pointe Dr.,Charleston,SC,29407,8435565200,https://www.wyndhamhotels.com/laquinta/charleston-south-carolina/la-quinta-charleston-riverview/overview,32.776544179198,-79.962356751767
4709 N Kings Highway,Myrtle Beach,SC,29577,8434495231,https://www.wyndhamhotels.com/laquinta/myrtle-beach-south-carolina/la-quinta-myrtle-beach-n-kings-hwy/overview,33.722841014957,-78.848905991227
1235 Springdale Road,Rock Hill,SC,29730,8038177500,https://www.wyndhamhotels.com/laquinta/rock-hill-south-carolina/la-quinta-rock-hill/overview,34.935994010855,-80.963664018066
2123 W Lucas St.,Florence,SC,29501,8435361895,https://www.wyndhamhotels.com/laquinta/florence-south-carolina/la-quinta-florence/overview,34.234834985917,-79.804434990419
14221 Highway 90,Boutte,LA,70039,9857587800,https://www.wyndhamhotels.com/laquinta/boutte-louisiana/la-quinta-boutte/overview,29.88985700062,-90.412641973427
10555 Rieger Road,Baton Rouge,LA,70809,2252916600,https://www.wyndhamhotels.com/laquinta/baton-rouge-louisiana/la-quinta-baton-rouge-siegen-lane/overview,30.381956147208,-91.063194755029
13450 Vera McGowan Rd.,Walker,LA,70785,2256671966,https://www.wyndhamhotels.com/laquinta/walker-louisiana/la-quinta-walker-denham-springs/overview,30.473081013408,-90.861969986401
2018 Allison St.,Morgan City,LA,70380,9857456900,https://www.wyndhamhotels.com/laquinta/morgan-city-louisiana/la-quinta-morgan-city/overview,29.695469979055,-91.181496014437
126 Holiday Boulevard,Slidell,LA,70460,9856492170,https://www.wyndhamhotels.com/laquinta/slidell-louisiana/la-quinta-inn-and-suites-slidell-north-shore/overview,30.311703016195,-89.829492014753
1617 ONeal Ln.,Baton Rouge,LA,70816,2252458009,https://www.wyndhamhotels.com/laquinta/baton-rouge-louisiana/la-quinta-baton-rouge-denham-springs/overview,30.446683592371,-91.007005158349
6116 West Calhoun Drive,Alexandria,LA,71303,3184423700,https://www.wyndhamhotels.com/laquinta/alexandria-louisiana/la-quinta-alexandria-airport/overview,31.346501014822,-92.521839026605
6700 Financial Circle,Shreveport,LA,71129,3186711100,https://www.wyndhamhotels.com/laquinta/shreveport-louisiana/la-quinta-shreveport-airport/overview,32.449417986185,-93.862137027952
189 Synergy Ctr Blvd.,Houma,LA,70360,9858791646,https://www.wyndhamhotels.com/laquinta/houma-louisiana/la-quinta-houma/overview,29.629151983945,-90.760526997391
1008 Sampson St.,Westlake,LA,70669,3376602525,https://www.wyndhamhotels.com/laquinta/westlake-louisiana/la-quinta-lake-charles-westlake/overview,30.246283980201,-93.257827038531
2816 S. Cabelas Parkway,Gonzales,LA,70737,2252240897,https://www.wyndhamhotels.com/laquinta/gonzales-louisiana/la-quinta-gonzales-la/overview,30.207051318934,-90.950719158477
301 West Camp St,New Orleans,LA,70130,5045989977,https://www.wyndhamhotels.com/laquinta/new-orleans-louisiana/la-quinta-new-orleans-downtown/overview,29.950903994008,-90.069139008442
309 Preston Boulevard,Bossier City,LA,71111,3187474400,https://www.wyndhamhotels.com/laquinta/bossier-city-louisiana/la-quinta-inn-bossier-city/overview,32.518115016873,-93.712860026263
50 Terry Parkway,Gretna,LA,70056,5043685600,https://www.wyndhamhotels.com/laquinta/gretna-louisiana/la-quinta-inn-new-orleans-west-bank-gretna/overview,29.924124986829,-90.039359028469
5900 Veterans Memorial Blvd,Metairie,LA,70003,5044560003,https://www.wyndhamhotels.com/laquinta/metairie-louisiana/la-quinta-inn-new-orleans-veterans-metairie/overview,30.004701982254,-90.20568800634
2610 Williams Boulevard,Kenner,LA,70062,5044661401,https://www.wyndhamhotels.com/laquinta/kenner-louisiana/la-quinta-new-orleans-airport/overview,30.004270020874,-90.240120026395
2720 N. Westport Dr.,Port Allen,LA,70767,2259607787,https://www.wyndhamhotels.com/laquinta/port-allen-louisiana/la-quinta-baton-rouge-port-allen/overview,30.447502001397,-91.239514039475
1308 Entrance Rd.,Leesville,LA,71446,3373780131,https://www.wyndhamhotels.com/laquinta/leesville-louisiana/la-quinta-leesville-ft-polk/overview,31.053948998942,-93.238114981557
42126 Veterans Ave,Hammond,LA,70403,9853454742,https://www.wyndhamhotels.com/laquinta/hammond-louisiana/la-quinta-hammond/overview,30.468639987739,-90.45581397156
507 Constitution Drive,West Monroe,LA,71292,3184600391,https://www.wyndhamhotels.com/laquinta/west-monroe-louisiana/la-quinta-west-monroe/overview,32.509105979702,-92.165656002316
1321 W Pinhook Rd,Lafayette,LA,70503,3373668652,https://www.wyndhamhotels.com/laquinta/lafayette-louisiana/la-quinta-lafayette-oil-center/overview,30.199695979338,-92.01564197988
104 Sweetland Ave,Broussard,LA,70518,3373308081,https://www.wyndhamhotels.com/laquinta/broussard-louisiana/la-quinta-broussard/overview,30.143124000236,-91.949076006165
400 Arena Rd,Sulphur,LA,70665,3372879674,https://www.wyndhamhotels.com/laquinta/sulphur-louisiana/la-quinta-inn-and-suites-sulphur-lake-charles/overview,30.213276669956,-93.376361893962
1001 SE Walton Boulevard,Bentonville,AR,72712,4792717555,https://www.wyndhamhotels.com/laquinta/bentonville-arkansas/la-quinta-inn-and-suites-bentonville/overview,36.336124886915,-94.199154495354
4311 Warden Rd.,North Little Rock,AR,72116,5017125206,https://www.wyndhamhotels.com/laquinta/north-little-rock-arkansas/la-quinta-n-little-rock-mccain-mall/overview,34.794369477217,-92.223517453402
408 W Commerce Dr.,Bryant,AR,72022,5018479494,https://www.wyndhamhotels.com/laquinta/bryant-arkansas/la-quinta-little-rock-bryant/overview,34.621436439744,-92.501210408519
111 E Harrell Dr.,Russellville,AR,72802,4792791053,https://www.wyndhamhotels.com/laquinta/russellville-arkansas/la-quinta-russellville/overview,35.303984831695,-93.135284368477
4253 Central Avenue,Hot Springs,AR,71913,5015206400,https://www.wyndhamhotels.com/laquinta/hot-springs-arkansas/la-quinta-hot-springs/overview,34.451505297074,-93.071368920184
504 N Poplar Street,Searcy,AR,72143,5012784200,https://www.wyndhamhotels.com/laquinta/searcy-arkansas/la-quinta-searcy/overview,35.251483942965,-91.691146656727
720 E Millsap Rd.,Fayetteville,AR,72703,4795878600,https://www.wyndhamhotels.com/laquinta/fayetteville-arkansas/la-quinta-fayetteville/overview,36.115192126536,-94.14736908588
2303 Junction City Rd.,El Dorado,AR,71730,8706397652,https://www.wyndhamhotels.com/laquinta/el-dorado-arkansas/la-quinta-inn-el-dorado/overview,33.19706171191,-92.63960569897
6700 Boston St.,Fort Smith,AR,72903,4795950041,https://www.wyndhamhotels.com/laquinta/fort-smith-arkansas/la-quinta-fort-smith/overview,35.354099811685,-94.358716846611
2350 Sanders Road,Conway,AR,72032,5014998097,https://www.wyndhamhotels.com/laquinta/conway-arkansas/la-quinta-conway/overview,35.108922773557,-92.434205642172
9 Crossings Court,Little Rock,AR,72205,5012516100,https://www.wyndhamhotels.com/laquinta/little-rock-arkansas/la-quinta-little-rock-west/overview,34.726479833353,-92.398378202877
617 S Bdwy.,Little Rock,AR,72201,5013749000,https://www.wyndhamhotels.com/laquinta/little-rock-arkansas/la-quinta-downtown-conference-center/overview,34.743481895301,-92.275704439858
1300 South 48th St.,Springdale,AR,72762,4793343101,https://www.wyndhamhotels.com/laquinta/springdale-arkansas/la-quinta-springdale/overview,36.174441075965,-94.184072685514
1550 North 6th Street,West Memphis,AR,72301,8705514453,https://www.wyndhamhotels.com/laquinta/west-memphis-arkansas/la-quinta-inn-and-suites-west-memphis/overview,35.164470771092,-90.176761384463
2407 Phillips Drive,Jonesboro,AR,72401,8702754250,https://www.wyndhamhotels.com/laquinta/jonesboro-arkansas/la-quinta-inn-and-suites-jonesboro/overview,35.807704020202,-90.675624017918
2535 Chantilly Dr. NE,Atlanta,GA,30324,4043210999,https://www.wyndhamhotels.com/laquinta/atlanta-georgia/la-quinta-atlanta-midtown-buckhead/overview,33.82363700486,-84.349765984504
1839 N Columbia St.,Milledgeville,GA,31061,4784549000,https://www.wyndhamhotels.com/laquinta/milledgeville-georgia/la-quinta-milledgeville/overview,33.104139004417,-83.24849999661
2415 Paces Ferry Road S.E.,Atlanta,GA,30339,7708019002,https://www.wyndhamhotels.com/laquinta/atlanta-georgia/la-quinta-atlanta-ballpark-galleria/overview,33.863231983903,-84.483323984073
8484 Abercorn St.,Savannah,GA,31406,9129277660,https://www.wyndhamhotels.com/laquinta/savannah-georgia/la-quinta-savannah-southside/overview,31.999970992096,-81.126378970745
414 Gray Street,Pooler,GA,31322,9123484447,https://www.wyndhamhotels.com/laquinta/pooler-georgia/la-quinta-savannah-airport-pooler/overview,32.114678007604,-81.240763031524
1184 Dogwood Drive SE,Conyers,GA,30012,7709180092,https://www.wyndhamhotels.com/laquinta/conyers-georgia/la-quinta-atlanta-conyers/overview,33.65609600379,-84.00608901121
6604 Londonderry Road,Union City,GA,30291,7708847453,https://www.wyndhamhotels.com/laquinta/union-city-georgia/la-quinta-inn-and-suites-atlanta-union-city/overview,33.574325898238,-84.537386721949
6260 Peachtree Dunwoody,Atlanta,GA,30328,7703506177,https://www.wyndhamhotels.com/laquinta/atlanta-georgia/la-quinta-atlanta-perimeter-medical/overview,33.925128986093,-84.352278040886
111 Hoffman Drive,LaGrange,GA,30241,7068128000,https://www.wyndhamhotels.com/laquinta/lagrange-georgia/la-quinta-lagrange-i-85/overview,33.039788996354,-84.973452000401
100 Mill Road,McDonough,GA,30253,6783690768,https://www.wyndhamhotels.com/laquinta/mcdonough-georgia/la-quinta-atlanta-south-mcdonough/overview,33.459405006589,-84.215092018347
4820 Massachusetts Blvd.,Atlanta,GA,30337,7709960000,https://www.wyndhamhotels.com/laquinta/atlanta-georgia/la-quinta-atlanta-airport-south/overview,33.623990003776,-84.453894032377
4615 Chambers Road,Macon,GA,31206,4782007314,https://www.wyndhamhotels.com/laquinta/macon-georgia/la-quinta-macon-west/overview,32.807140011716,-83.722066964825
1350 North Point Drive,Alpharetta,GA,30022,7707547800,https://www.wyndhamhotels.com/laquinta/alpharetta-georgia/la-quinta-atlanta-alpharetta/overview,34.05041899255,-84.289155017719
3944 River Place Drive,Macon,GA,31210,4782163086,https://www.wyndhamhotels.com/laquinta/macon-georgia/la-quinta-macon/overview,32.903847015884,-83.685350959974
6805 Abercorn Street,Savannah,GA,31405,9126625319,https://www.wyndhamhotels.com/laquinta/savannah-georgia/la-quinta-inn-savannah-midtown/overview,32.015212980106,-81.114087999386
1000 Linnenkohl Dr.,Douglasville,GA,30134,7705773838,https://www.wyndhamhotels.com/laquinta/douglasville-georgia/la-quinta-atlanta-douglasville/overview,33.731427017474,-84.760497009736
3581 Cameron Pkwy.,Stockbridge,GA,30281,7708842177,https://www.wyndhamhotels.com/laquinta/stockbridge-georgia/la-quinta-atlanta-stockbridge/overview,33.553474980199,-84.274952972436
600 Hwy. 34 E,Newnan,GA,30265,7704000921,https://www.wyndhamhotels.com/laquinta/newnan-georgia/la-quinta-atlanta-south-newnan/overview,33.397441996912,-84.758116968329
150 Cracker Barrel Dr.,Calhoun,GA,30701,7066292559,https://www.wyndhamhotels.com/laquinta/calhoun-georgia/la-quinta-inn-calhoun-south-i-75/overview,34.47082499716,-84.91529399758
1200 Virginia Ave,Atlanta,GA,30344,4042091800,https://www.wyndhamhotels.com/laquinta/atlanta-georgia/la-quinta-atlanta-airport-north/overview,33.658222995539,-84.428503990373
104 May Creek Dr.,Kingsland,GA,31548,9128828010,https://www.wyndhamhotels.com/laquinta/kingsland-georgia/la-quinta-kingsland-kings-bay-naval-b/overview,30.789806018951,-81.663451009273
9159 Access Road NW,Covington,GA,30014,7707849200,https://www.wyndhamhotels.com/laquinta/covington-georgia/la-quinta-covington/overview,33.608339984719,-83.883787991425
4080 Watson Boulevard,Warner Robins,GA,31093,4782859623,https://www.wyndhamhotels.com/laquinta/warner-robins-georgia/la-quinta-warner-robins-robins-afb/overview,32.615777013179,-83.702114011954
101 Travel Center Blvd.,Dublin,GA,31021,4782723110,https://www.wyndhamhotels.com/laquinta/dublin-georgia/la-quinta-dublin/overview,32.486591014306,-82.938650037599
15 Chateau Drive Se,Rome,GA,30161,7066225614,https://www.wyndhamhotels.com/laquinta/rome-georgia/la-quinta-rome/overview,34.221436771257,-85.153693137713
575 Old Holcomb Bridge Road,Roswell,GA,30076,7705520200,https://www.wyndhamhotels.com/laquinta/roswell-georgia/la-quinta-atlanta-roswell/overview,34.02478101385,-84.328891022284
2919 Warm Springs Rd.,Columbus,GA,31909,7063234344,https://www.wyndhamhotels.com/laquinta/columbus-georgia/la-quinta-columbus-state-university/overview,32.505213004772,-84.948378961975
1740 E. Oglethorpe Hwy.,Hinesville,GA,31313,9125428079,https://www.wyndhamhotels.com/laquinta/hinesville-georgia/la-quinta-hinesville-fort-stewart/overview,31.858648793706,-81.566967173278
400 Russell Pkwy,Forsyth,GA,31029,4789745436,https://www.wyndhamhotels.com/laquinta/forsyth-georgia/la-quinta-forsyth/overview,33.043798982652,-83.941139990436
1711 Rolns Way,Columbus,GA,31904,7062251000,https://www.wyndhamhotels.com/laquinta/columbus-georgia/la-quinta-columbus-north/overview,32.521331,-84.976337
2971 W Main Street,Snellville,GA,30078,7707364723,https://www.wyndhamhotels.com/laquinta/snellville-georgia/la-quinta-snellville-stone-mountain/overview,33.853724013946,-84.036386992799
560 Greers Chapel Dr. NW,Kennesaw,GA,30144,7706157255,https://www.wyndhamhotels.com/laquinta/kennesaw-georgia/la-quinta-kennesaw/overview,34.005236008207,-84.568223024052
100 Capital Square Dr,Brunswick,GA,31520,9122633000,https://www.wyndhamhotels.com/laquinta/brunswick-georgia/la-quinta-brunswick-golden-iles-ga/overview,31.243151981031,-81.507217027949
102 Plaza Drive,Perry,GA,31069,4782874431,https://www.wyndhamhotels.com/laquinta/perry-georgia/la-quinta-by-wyndham-perry/overview,32.469529985669,-83.739886974795
200 Kaival Ln,Braselton,GA,30517,7066843266,https://www.wyndhamhotels.com/laquinta/braselton-georgia/la-quinta-inn-and-suites-braselton/overview,34.123869442439,-83.762646859401
1215 US 82 West,Tifton,GA,31793,2295868025,https://www.wyndhamhotels.com/laquinta/tifton-georgia/la-quinta-tifton/overview,31.449731540099,-83.533194897774
2735 Dawson Rd,Albany,GA,31707,2298839800,https://www.wyndhamhotels.com/laquinta/albany-georgia/la-quinta-inn-and-suites-albany-ga/overview,31.62213700899,-84.2270389964
4660 Bill Gardner Pkwy,Locust Grove,GA,30248,4703177163,https://www.wyndhamhotels.com/laquinta/locust-grove-georgia/la-quinta-inn-suites-locust-grove/overview,33.351455984335,-84.127715958342
4049 Jimmie Dyess Parkway,Augusta,GA,30909,7062281990,https://www.wyndhamhotels.com/laquinta/augusta-georgia/la-quinta-inn-and suites-augusta-fort-eisenhower/overview,33.476225013601,-82.129823035621
4610 N. Valdosta Road,Valdosta,GA,31602,2294746199,https://www.wyndhamhotels.com/laquinta/valdosta-georgia/la-quinta-inn-and-suites-valdosta/overview,30.895074415207,-83.352833968649
6560 Surrey St.,Las Vegas,NV,89119,7025185955,https://www.wyndhamhotels.com/laquinta/las-vegas-nevada/la-quinta-las-vegas-airport-south/overview,36.070371994781,-115.123284037748
7101 Cascade Valley Crt,Las Vegas,NV,89128,7023601200,https://www.wyndhamhotels.com/laquinta/las-vegas-nevada/la-quinta-las-vegas-summerlin-tech/overview,36.211304979497,-115.24708298745
9570 W Sahara Ave.,Las Vegas,NV,89117,7022430356,https://www.wyndhamhotels.com/laquinta/las-vegas-nevada/la-quinta-las-vegas-redrock-summerlin/overview,36.145539016531,-115.303271997396
1591 Great Basin Blvd.,Ely,NV,89301,7752898833,https://www.wyndhamhotels.com/laquinta/ely-nevada/la-quinta-ely/overview,39.245883002526,-114.871873964962
4001 Market Street,Reno,NV,89502,7753486100,https://www.wyndhamhotels.com/laquinta/reno-nevada/la-quinta-inn-reno/overview,39.509902014169,-119.7821309789
4288 N Nellis Blvd.,Las Vegas,NV,89115,7026320229,https://www.wyndhamhotels.com/laquinta/las-vegas-nevada/la-quinta-inn-suites-las-vegas-nellis/overview,36.238008004724,-115.061500023613
2224 8th Ave.,Seattle,WA,98121,2066246820,https://www.wyndhamhotels.com/laquinta/seattle-washington/la-quinta-seattle-downtown/overview,47.617949008764,-122.339792038472
3808 N Sullivan Rd.,Spokane Valley,WA,99216,5098930955,https://www.wyndhamhotels.com/laquinta/spokane-valley-washington/la-quinta-spokane-valley/overview,47.690650996608,-117.196148977241
4600 Capitol Boulevard SE,Tumwater,WA,98501,3603525433,https://www.wyndhamhotels.com/laquinta/tumwater-washington/la-quinta-tumwater-olympia/overview,47.006029005631,-122.907541004432
4300 Alderwood Mall Blvd.,Lynnwood,WA,98036,4257757447,https://www.wyndhamhotels.com/laquinta/lynnwood-washington/la-quinta-inn-lynnwood/overview,47.816756017421,-122.290871982598
1500 NE 134th Street,Vancouver,WA,98685,3605661100,https://www.wyndhamhotels.com/laquinta/vancouver-washington/la-quinta-vancouver/overview,45.718779734205,-122.656081813693
225 6th Street SE,Auburn,WA,98002,2538049999,https://www.wyndhamhotels.com/laquinta/auburn-washington/la-quinta-auburn/overview,47.302389003943,-122.227071031102
2824 S 188th St,Seattle,WA,98188,2062415211,https://www.wyndhamhotels.com/laquinta/seattle-washington/la-quinta-seattle-sea-tac-airport/overview,47.43529443044,-122.297001333114
1425 E 27th Street,Tacoma,WA,98421,2533830146,https://www.wyndhamhotels.com/laquinta/tacoma-washington/la-quinta-tacoma-seattle/overview,47.240144990962,-122.412011019146
4704 Prk Center Ave. NE,Lacey,WA,98516,3604121200,https://www.wyndhamhotels.com/laquinta/lacey-washington/la-quinta-inn-olympia-lacey/overview,47.049300999869,-122.821140011224
12619 4th Avenue,Everett,WA,98204,4253667494,https://www.wyndhamhotels.com/laquinta/everett-washington/la-quinta-inn-everett/overview,47.883508991396,-122.234157008228
1063 W. Bakerview Rd.,Bellingham,WA,98226,3607477685,https://www.wyndhamhotels.com/laquinta/bellingham-washington/la-quinta-bellingham/overview,48.789247222612,-122.509741747058
776 Silverstone Drive,Walla Walla,WA,99362,5093948815,https://www.wyndhamhotels.com/laquinta/walla-walla-washington/la-quinta-walla-walla/overview,46.067817018399,-118.371534961449
2600 S Quillan Plc.,Kennewick,WA,99338,5097363656,https://www.wyndhamhotels.com/laquinta/kennewick-washington/la-quinta-kennewick/overview,46.186572996055,-119.176483992104
31611 Pete Von,Federal Way,WA,98003,2539416000,https://www.wyndhamhotels.com/laquinta/federal-way-washington/la-quinta-seattle-federal-way/overview,47.315173,-122.318442
1670 S Burlington Blvd,Burlington,WA,98233,3602059205,https://www.wyndhamhotels.com/laquinta/burlington-washington/la-quinta-burlington/overview,48.454080982345,-122.334181024849
211 S. Division St.,Spokane,WA,99202,5098386630,https://www.wyndhamhotels.com/laquinta/spokane-washington/la-quinta-spokane-downtown/overview,47.654235692534,-117.410753861727
11430 38th Drive NE,Marysville,WA,98271,3606591710,https://www.wyndhamhotels.com/laquinta/marysville-washington/la-quinta-inn-and-suites-marysville/overview,48.098534982697,-122.179684025319
1225 Mellen Street,Centralia,WA,98531,3606698110,https://www.wyndhamhotels.com/laquinta/centralia-washington/la-quinta-inn-and-suites-centralia/overview,46.712391994294,-122.973283959075
235 East Penny Road,Wenatchee,WA,98801,5092047520,https://www.wyndhamhotels.com/laquinta/wenatchee-washington/la-quinta-inn-and-suites-wenatchee/overview,47.465533990164,-120.331326015448
1001 Staff Sgt. Pendleton Way,Yakima,WA,98901,5092491000,https://www.wyndhamhotels.com/laquinta/yakima-washington/la-quinta-inn-and-suites-yakima-downtown/overview,46.607046013981,-120.492705982408
1524 Colony Rd.,Ripon,CA,95366,2093828132,https://www.wyndhamhotels.com/laquinta/ripon-california/la-quinta-manteca-ripon/overview,37.753592011404,-121.141460007588
4610 De Soto St.,San Diego,CA,92109,8584839800,https://www.wyndhamhotels.com/laquinta/san-diego-california/la-quinta-san-diego-mission-bay/overview,32.807273996438,-117.218108976827
6275 Dublin Blvd,Dublin,CA,94568,9259672750,https://www.wyndhamhotels.com/laquinta/dublin-california/la-quinta-dublin-pleasanton/overview,37.706206011449,-121.908037020782
20777 Hesperian Blvd.,Hayward,CA,94541,5107326300,https://www.wyndhamhotels.com/laquinta/hayward-california/la-quinta-oakland-hayward/overview,37.664529009566,-122.118385993931
8858 Spectrum Pkwy,Bakersfield,CA,93308,6613937775,https://www.wyndhamhotels.com/laquinta/bakersfield-california/la-quinta-bakersfield-north/overview,35.440296998918,-119.075684984716
2585 Seaboard Avenue,San Jose,CA,95131,4084358800,https://www.wyndhamhotels.com/laquinta/san-jose-california/la-quinta-san-jose-airport/overview,37.378293009185,-121.938619987079
2710 West March Lane,Stockton,CA,95219,2099527800,https://www.wyndhamhotels.com/laquinta/stockton-california/la-quinta-inn-stockton/overview,37.983089987181,-121.344010038927
316 Pittman Rd.,Fairfield,CA,94534,7073449228,https://www.wyndhamhotels.com/laquinta/fairfield-california/la-quinta-fairfield-napa-valley/overview,38.21926301728,-122.12724801252
4604 Madison Avenue,Sacramento,CA,95841,9163480900,https://www.wyndhamhotels.com/laquinta/sacramento-california/la-quinta-inn-sacramento-north/overview,38.659840616705,-121.357159149534
1515 South Coast Drive,Costa Mesa,CA,92626,7144269833,https://www.wyndhamhotels.com/laquinta/costa-mesa-california/la-quinta-inn-costa-mesa-newport-beach/overview,33.690959985224,-117.921868990139
14972 Sand Canyon Avenue,Irvine,CA,92618,9495510909,https://www.wyndhamhotels.com/laquinta/irvine-california/la-quinta-irvine-spectrum/overview,33.675724996103,-117.758674005865
17043 Condit Rd.,Morgan Hill,CA,95037,6692536022,https://www.wyndhamhotels.com/laquinta/morgan-hill-california/la-quinta-morgan-hill-san-jose-south/overview,37.13385500346,-121.632637019098
3200 W Temple Ave.,Pomona,CA,91768,9095980073,https://www.wyndhamhotels.com/laquinta/pomona-california/la-quinta-pomona/overview,34.046561012066,-117.803370001634
25201 The Old Rd.,Stevenson Ranch,CA,91381,6612861111,https://www.wyndhamhotels.com/laquinta/stevenson-ranch-california/la-quinta-santa-clarita-valencia/overview,34.375682014216,-118.5651639656
1771 Research Park Dr.,Davis,CA,95618,5307582600,https://www.wyndhamhotels.com/laquinta/davis-california/la-quinta-davis/overview,38.542141010306,-121.731800968634
4909 Sisk Rd.,Salida,CA,95368,2094187127,https://www.wyndhamhotels.com/laquinta/salida-california/la-quinta-modesto-salida/overview,37.709440001151,-121.078236988316
20 W Pacheco Blvd.,Los Banos,CA,93635,2092698787,https://www.wyndhamhotels.com/laquinta/los-banos-california/la-quinta-los-banos/overview,37.057248012655,-120.854253005634
3232 Riverside Drive,Bakersfield,CA,93308,6613257400,https://www.wyndhamhotels.com/laquinta/bakersfield-california/la-quinta-inn-bakersfield-south/overview,35.383745010655,-119.041750011519
150 Bonita Road,Chula Vista,CA,91910,6193618397,https://www.wyndhamhotels.com/laquinta/chula-vista-california/la-quinta-inn-san-diego-chula-vista/overview,32.647335004363,-117.062098959955
2926 Tulare St,Fresno,CA,93721,5594421110,https://www.wyndhamhotels.com/laquinta/fresno-california/la-quinta-inn-fresno-yosemite/overview,36.740546979355,-119.779907008531
23090 Sunnymead Blvd.,Moreno Valley,CA,92553,9514869000,https://www.wyndhamhotels.com/laquinta/moreno-valley-california/la-quinta-moreno-valley/overview,33.939806997748,-117.259521026751
2180 Hilltop Drive,Redding,CA,96002,5302218200,https://www.wyndhamhotels.com/laquinta/redding-california/la-quinta-redding/overview,40.575986011222,-122.359126993622
2615 Buena Vista Dr.,Paso Robles,CA,93446,8052393004,https://www.wyndhamhotels.com/laquinta/paso-robles-california/la-quinta-paso-robles/overview,35.645373000598,-120.670774989142
10185 Paseo Montril,San Diego,CA,92129,8587278025,https://www.wyndhamhotels.com/laquinta/san-diego-california/la-quinta-inn-san-diego-miramar/overview,32.950377013977,-117.106376028204
27330 Jefferson Ave.,Temecula,CA,92590,9512254031,https://www.wyndhamhotels.com/laquinta/temecula-california/la-quinta-temecula/overview,33.522857019456,-117.165018002114
20 Airport Boulevard,S. San Francisco,CA,94080,6505832223,https://www.wyndhamhotels.com/laquinta/s-san-francisco-california/la-quinta-san-francisco-airport-north/overview,37.651033013897,-122.40759400763
5438 W Cypress Ave.,Visalia,CA,93277,5592355100,https://www.wyndhamhotels.com/laquinta/visalia-california/la-quinta-visalia-sequoia-gateway/overview,36.326096903685,-119.351635006886
3 Centerpointe Drive,La Palma,CA,90623,7146701400,https://www.wyndhamhotels.com/laquinta/la-palma-california/la-quinta-buena-park/overview,33.860396008874,-118.03156698031
3945 W Imperial Highway,Inglewood,CA,90303,3106803333,https://www.wyndhamhotels.com/laquinta/inglewood-california/la-quinta-inglewood/overview,33.93129198995,-118.343307980496
760 Macadamia Dr.,Carlsbad,CA,92011,7604382828,https://www.wyndhamhotels.com/laquinta/carlsbad-california/la-quinta-carlsbad-legoland-area/overview,33.106607013897,-117.313649010525
12441 Carson Street,Hawaiian Gardens,CA,90716,5625218433,https://www.wyndhamhotels.com/laquinta/hawaiian-gardens-california/la-quinta-ne-long-beach-cypress/overview,33.831927000467,-118.066277028092
5249 W Century Boulevard,Los Angeles,CA,90045,3106452200,https://www.wyndhamhotels.com/laquinta/los-angeles-california/la-quinta-lax/overview,33.94572198109,-118.371798991399
2721 Hotel Ter.,Santa Ana,CA,92705,7145401111,https://www.wyndhamhotels.com/laquinta/santa-ana-california/la-quinta-orange-county-airport/overview,33.71010400062,-117.853154986097
5077 N Cornelia Ave.,Fresno,CA,93722,5597610445,https://www.wyndhamhotels.com/laquinta/fresno-california/la-quinta-fresno-northwest/overview,36.809814985287,-119.881107006167
7700 Southfront St.,Livermore,CA,94550,9253739600,https://www.wyndhamhotels.com/laquinta/livermore-california/la-quinta-inn-livermore/overview,37.715492992529,-121.701100990968
190 N. 10th St.,Fowler,CA,93625,5596534526,https://www.wyndhamhotels.com/laquinta/fowler-california/la-quinta-fowler/overview,36.627934014717,-119.68442003228
11131 Folsom Blvd,Rancho Cordova,CA,95670,9166381111,https://www.wyndhamhotels.com/laquinta/rancho-cordova-california/la-quinta-rancho-cordova-sacramento/overview,38.60614467813,-121.270592027004
1320 Newbury Rd.,Thousand Oaks,CA,91320,8054995910,https://www.wyndhamhotels.com/laquinta/thousand-oaks-california/la-quinta-thousand-oaks-newbury-park/overview,34.182627002794,-118.909615007653
920 University Ave.,Berkeley,CA,94710,5108491121,https://www.wyndhamhotels.com/laquinta/berkeley-california/la-quinta-inn-berkeley/overview,37.867950004464,-122.295856029864
1752 S Clementine St.,Anaheim,CA,92802,7146355000,https://www.wyndhamhotels.com/laquinta/anaheim-california/la-quinta-anaheim/overview,33.804400998077,-117.909453966613
3555 Inland Empire Blvd.,Ontario,CA,91764,9094761112,https://www.wyndhamhotels.com/laquinta/ontario-california/la-quinta-ontario-airport/overview,34.071612131815,-117.572798848885
12000 Mariposa Rd.,Hesperia,CA,92345,7606627447,https://www.wyndhamhotels.com/laquinta/hesperia-california/la-quinta-hesperia-victorville/overview,34.468557985718,-117.346341031299
46200 Landing Parkway,Fremont,CA,94538,5104450808,https://www.wyndhamhotels.com/laquinta/fremont-california/la-quinta-fremont-silicon-valley/overview,37.489606988379,-121.94567000584
8465 Enterprise Way,Oakland,CA,94621,5104950194,https://www.wyndhamhotels.com/laquinta/oakland-california/la-quinta-oakland-airport-coliseum/overview,37.742635983854,-122.193957987332
1390 El Camino Real,Millbrae,CA,94030,6509523200,https://www.wyndhamhotels.com/laquinta/millbrae-california/la-quinta-san-francisco-airport-west/overview,37.610233010543,-122.40069796443
1500 N Cherry Court,Tulare,CA,93274,5593584891,https://www.wyndhamhotels.com/laquinta/tulare-california/la-quinta-tulare/overview,36.22747999906,-119.337487024878
317 North G Street,Madera,CA,93637,5598310730,https://www.wyndhamhotels.com/laquinta/madera-california/lla-quinta-madera/overview,36.963018992433,-120.063658989996
1508 Clovis Ave,Clovis,CA,93612,5592919000,https://www.wyndhamhotels.com/laquinta/clovis-california/la-quinta-inn-and-suites-clovis/overview,36.81285501775,-119.700912013511
1845 Monterey Street,San Luis Obispo,CA,93401,8054394555,https://www.wyndhamhotels.com/laquinta/san-luis-obispo-california/la-quinta-inn-and-suites-san-luis-obispo-downtown/overview,35.288824986335,-120.650877021556
225 E Hospitality Lane,San Bernardino,CA,92408,9098886777,https://www.wyndhamhotels.com/laquinta/san-bernardino-california/la-quinta-san-bernardino/overview,34.06488800145,-117.28211796716
111 Commercial Court,Santa Rosa,CA,95407,7075969800,https://www.wyndhamhotels.com/laquinta/santa-rosa-california/la-quinta-inn-and-suites-santa-rosa-sonoma/overview,38.418067804732,-122.715158137826
550 2nd Street,Santa Cruz,CA,95060,8312958807,https://www.wyndhamhotels.com/laquinta/santa-cruz-california/la-quinta-inn-and-suites-santa-cruz/overview,36.964706018085,-122.024789975036
1080 North. Lincoln Way,Galt,CA,95632,2092517788,https://www.wyndhamhotels.com/laquinta/galt-california/la-quinta-inn-and-suites-galt-lodi-north/overview,38.273104256146,-121.304315273326
12952 14th St.,Yucaipa,CA,92399,9097954400,https://www.wyndhamhotels.com/laquinta/yucaipa-california/la-quinta-inn-and-suites-yucaipa/overview,34.018514996403,-117.095511992041
1036 North 4th Street,San Jose,CA,95112,4082950240,https://www.wyndhamhotels.com/laquinta/san-jose-california/la-quinta-inn-and-suites-san-jose-silicon-valley/overview,37.357670006974,-121.901628971985
1390 NW 118th St.,Clive,IA,50325,5152189187,https://www.wyndhamhotels.com/laquinta/clive-iowa/la-quinta-des-moines-west-clive/overview,41.602449003422,-93.779953976059
3330 E Kimberly Rd.,Davenport,IA,52807,5633593921,https://www.wyndhamhotels.com/laquinta/davenport-iowa/la-quinta-inn-davenport-and-conference-center/overview,41.552217012063,-90.522960978804
1785 11th Street NW,Altoona,IA,50009,5157061507,https://www.wyndhamhotels.com/laquinta/altoona-iowa/la-quinta-by-wyndham-altoona-iowa/overview,41.660960010095,-93.484915007597
2402 SE Tones Dr.,Ankeny,IA,50021,5159639500,https://www.wyndhamhotels.com/laquinta/ankeny-iowa/la-quinta-inn-and-suites-ankeny-ia-des-moines-ia/overview,41.706326013294,-93.574238016072
1201 Avenue H,Carter Lake,IA,51510,7128472229,https://www.wyndhamhotels.com/laquinta/carter-lake-iowa/la-quinta-omaha-airport-downtown/overview,41.280860985294,-95.913894994144
721 Southwest Dr.,Horn Lake,MS,38637,6625106500,https://www.wyndhamhotels.com/laquinta/horn-lake-mississippi/la-quinta-horn-lake-southaven-area/overview,34.961356015392,-90.00217196066
1400 Roebuck Dr.,Meridian,MS,39301,6016932300,https://www.wyndhamhotels.com/laquinta/meridian-mississippi/la-quinta-meridian/overview,32.35049899777,-88.692027017796
109 Lundy Ln.,Hattiesburg,MS,39401,7692236000,https://www.wyndhamhotels.com/laquinta/hattiesburg-mississippi/la-quinta-hattiesburg-i-59/overview,31.32779298412,-89.349444997194
982 Hwy 12 East,Starkville,MS,39759,6622704100,https://www.wyndhamhotels.com/laquinta/starkville-mississippi/la-quinta-starkville-at-msu/overview,33.480469986554,-88.793390965459
1013 N Gloster St.,Tupelo,MS,38804,6628478000,https://www.wyndhamhotels.com/laquinta/tupelo-mississippi/la-quinta-tupelo/overview,34.276892987209,-88.716469988561
7001 MS-63,Moss Point,MS,39563,2282851117,https://www.wyndhamhotels.com/laquinta/moss-point-mississippi/la-quinta-inn-moss-point-pascagoula/overview,30.442841998508,-88.53055501754
4160 South Frontage Road,Vicksburg,MS,39180,6018020525,https://www.wyndhamhotels.com/laquinta/vicksburg-mississippi/la-quinta-vicksburg/overview,32.34257801545,-90.839354019072
501 S Pearson RD,Pearl,MS,39208,6016640065,https://www.wyndhamhotels.com/laquinta/pearl-mississippi/la-quinta-jackson-airport/overview,32.262985013548,-90.133949979271
957 Cedar Lake Rd.,Biloxi,MS,39532,2283925978,https://www.wyndhamhotels.com/laquinta/biloxi-mississippi/la-quinta-biloxi/overview,30.445542019068,-88.935878038842
152 Soldiers Colony Rd,Canton,MS,39046,6016674369,https://www.wyndhamhotels.com/laquinta/canton-mississippi/la-quinta-canton-ms/overview,32.601599987876,-90.068318001026
215 Dande Road,Brandon,MS,39042,6015911045,https://www.wyndhamhotels.com/laquinta/brandon-mississippi/la-quinta-brandon-jackson-airport-e/overview,32.275539009029,-90.035444009134
1200 Hwy 45 North,Columbus,MS,39705,6622402454,https://www.wyndhamhotels.com/laquinta/columbus-mississippi/la-quinta-columbus-ms/overview,33.508332019443,-88.431538002766
1171 Frontage Road,Oxford,MS,38655,6623402062,https://www.wyndhamhotels.com/laquinta/oxford-mississippi/la-quinta-inn-and-suites-oxford/overview,34.352641000577,-89.522213036903
4298 Cerrillos Road,Santa Fe,NM,87507,5054711142,https://www.wyndhamhotels.com/laquinta/santa-fe-new-mexico/la-quinta-inn-santa-fe/overview,35.635069001296,-106.018234009863
7439 Pan American Freeway NE,Albuquerque,NM,87109,5053457500,https://www.wyndhamhotels.com/laquinta/albuquerque-new-mexico/la-quinta-albuquerque-journal-ctr-nw/overview,35.161398013663,-106.588298979489
2207 W Main Street,Artesia,NM,88210,5757362400,https://www.wyndhamhotels.com/laquinta/artesia-new-mexico/la-quinta-artesia/overview,32.842214001735,-104.423904998425
1500 Hickory Drive,Las Cruces,NM,88005,5755230100,https://www.wyndhamhotels.com/laquinta/las-cruces-new-mexico/la-quinta-las-cruces-organ-mountain/overview,32.290236005695,-106.787425003381
2516 S Adams St.,Tucumcari,NM,88401,5754612233,https://www.wyndhamhotels.com/laquinta/tucumcari-new-mexico/la-quinta-tucumcari/overview,35.154452803396,-103.723529916786
5241 San Antonio Drive NE,Albuquerque,NM,87109,5058219000,https://www.wyndhamhotels.com/laquinta/albuquerque-new-mexico/la-quinta-inn-albuquerque-northeast/overview,35.160579981823,-106.584630974841
2116 Yale Boulevard SE,Albuquerque,NM,87106,5052435500,https://www.wyndhamhotels.com/laquinta/albuquerque-new-mexico/la-quinta-inn-albuquerque-airport/overview,35.057776987114,-106.620809029146
3880 E Hwy. 66,Gallup,NM,87301,5057222233,https://www.wyndhamhotels.com/laquinta/gallup-new-mexico/la-quinta-gallup/overview,35.503586118712,-108.842971456758
790 Avenida De Mesilla,Las Cruces,NM,88005,5759935907,https://www.wyndhamhotels.com/laquinta/las-cruces-new-mexico/la-quinta-inn-las-cruces-mesilla-valley/overview,32.292942019316,-106.788705003815
6101 Iliff Rd N.W.,Albuquerque,NM,87121,5058391744,https://www.wyndhamhotels.com/laquinta/albuquerque-new-mexico/la-quinta-albuquerque-west/overview,35.103796988308,-106.708884978066
200 E 19th Street,Roswell,NM,88201,5756228000,https://www.wyndhamhotels.com/laquinta/roswell-new-mexico/la-quinta-roswell/overview,33.415452988546,-104.519530024621
26147 US Hwy 70,Ruidoso Downs,NM,88346,5753783514,https://www.wyndhamhotels.com/laquinta/ruidoso-downs-new-mexico/la-quinta-ruidoso-downs/overview,33.326496017783,-105.621961013238
4300 E Pine St.,Deming,NM,88030,5755460600,https://www.wyndhamhotels.com/laquinta/deming-new-mexico/la-quinta-deming/overview,32.271903987169,-107.712927007914
4020 National Parks Hwy,Carlsbad,NM,88220,5752361010,https://www.wyndhamhotels.com/laquinta/carlsbad-new-mexico/la-quinta-carlsbad/overview,32.370962995277,-104.231260029707
675 Scott Avenue,Farmington,NM,87401,5053274706,https://www.wyndhamhotels.com/laquinta/farmington-new-mexico/la-quinta-inn-farmington/overview,36.730002000337,-108.191711962312
2277 Historic RTE 66,Santa Rosa,NM,88435,5753392826,https://www.wyndhamhotels.com/laquinta/santa-rosa-new-mexico/la-quinta-santa-rosa/overview,34.945816008815,-104.668397989435
3312 North Lovington Hwy,Hobbs,NM,88240,5753920122,https://www.wyndhamhotels.com/laquinta/hobbs-new-mexico/la-quinta-hobbs/overview,32.736796984792,-103.156268961335
2011 Menaul Blvd. NE,Albuquerque,NM,87107,5052260927,https://www.wyndhamhotels.com/laquinta/albuquerque-new-mexico/la-quinta-albuquerque-midtown/overview,35.110812012623,-106.622959993138
23040 Lincolnway W,South Bend,IN,46628,5742333131,https://www.wyndhamhotels.com/laquinta/south-bend-indiana/la-quinta-south-bend/overview,41.695780772576,-86.313477942041
511 Albany Drive,Kokomo,IN,46901,7654532222,https://www.wyndhamhotels.com/laquinta/kokomo-indiana/la-quinta-kokomo/overview,40.437714993226,-86.124761973566
5316 West Southern Avenue,Indianapolis,IN,46241,3172474281,https://www.wyndhamhotels.com/laquinta/indianapolis-indiana/la-quinta-inn-indianapolis-airport-lynhurst/overview,39.728933004536,-86.25127196603
8015 E Division Street,Evansville,IN,47715,8124713414,https://www.wyndhamhotels.com/laquinta/evansville-indiana/la-quinta-evansville/overview,37.978717986484,-87.454673036679
2251 Manchester Dr.,Plainfield,IN,46168,3174065106,https://www.wyndhamhotels.com/laquinta/plainfield-indiana/la-quinta-indianapolis-airport-west/overview,39.673287980106,-86.367130990311
3880 W 92nd St.,Indianapolis,IN,46268,3178723100,https://www.wyndhamhotels.com/laquinta/indianapolis-indiana/la-quinta-inn-indianapolis-north-at-pyramids/overview,39.920059004761,-86.22828996099
2150 W Holiday Rd.,Frankfort,IN,46041,7656594400,https://www.wyndhamhotels.com/laquinta/frankfort-indiana/la-quinta-frankfort/overview,40.278037013615,-86.54548699341
451 E. Margaret Ave.,Terre Haute,IN,47802,8122441144,https://www.wyndhamhotels.com/laquinta/terre-haute-indiana/la-quinta-terre-haute/overview,39.432427999299,-87.410870970884
2650 Executive Drive,Indianapolis,IN,46241,3172448100,https://www.wyndhamhotels.com/laquinta/indianapolis-indiana/la-quinta-inn-indianapolis-airport-executive-dr/overview,39.727051979735,-86.258243027263
5120 Victory Dr.,Indianapolis,IN,46203,3177837751,https://www.wyndhamhotels.com/laquinta/indianapolis-indiana/la-quinta-indianapolis-south/overview,39.702556999262,-86.080321039111
330 Northpointe Boulevard,Elkhart,IN,46514,5748084158,https://www.wyndhamhotels.com/laquinta/elkhart-indiana/la-quinta-elkhart/overview,41.735579986933,-85.978704041791
101 Carrie Ln.,Columbus,IN,47201,8123026653,https://www.wyndhamhotels.com/laquinta/columbus-indiana/la-quinta-columbus-edinburgh/overview,39.198486986197,-85.960558981616
3380 W Runkle Way,Bloomington,IN,47404,8122876731,https://www.wyndhamhotels.com/laquinta/bloomington-indiana/la-quinta-bloomington/overview,39.166586007535,-86.577051983484
52554 State Road 933,South Bend,IN,46637,5745445851,https://www.wyndhamhotels.com/laquinta/south-bend-indiana/la-quinta-inn-and-suites-south-bend-near-notre-dame/overview,41.729847179278,-86.250533658715
401 E Washington St.,Indianapolis,IN,46204,4632590689,https://www.wyndhamhotels.com/laquinta/indianapolis-indiana/la-quinta-indianapolis-downtown/overview,39.766472992379,-86.150506989169
7255 W 183rd Street,Tinley Park,IL,60477,7086331200,https://www.wyndhamhotels.com/laquinta/tinley-park-illinois/la-quinta-chicago-tinley-park/overview,41.55717587171,-87.793902236872
7401 Walton St.,Rockford,IL,61108,8152271300,https://www.wyndhamhotels.com/laquinta/rockford-illinois/la-quinta-rockford/overview,42.268430982841,-88.972260024851
5450 27th Street,Moline,IL,61265,3097629008,https://www.wyndhamhotels.com/laquinta/moline-illinois/la-quinta-inn-moline-airport/overview,41.456579999745,-90.498001012252
6 Gateway Dr.,Collinsville,IL,62234,6188558400,https://www.wyndhamhotels.com/laquinta/collinsville-illinois/la-quinta-collinsville-st-louis/overview,38.682839008366,-90.017152014196
14 Regency Parkway,Pontoon Beach,IL,62040,6187971200,https://www.wyndhamhotels.com/laquinta/pontoon-beach-illinois/la-quinta-pontoon-beach/overview,38.745006997485,-90.071962033432
1900 Center Drive,Champaign,IL,61820,2173564000,https://www.wyndhamhotels.com/laquinta/champaign-illinois/la-quinta-inn-champaign/overview,40.138492868346,-88.244340013826
1121 Lejune Dr.,Springfield,IL,62703,2176975686,https://www.wyndhamhotels.com/laquinta/springfield-illinois/la-quinta-springfield-il/overview,39.746365980127,-89.64082702512
855 79th St.,Willowbrook,IL,60527,6305263992,https://www.wyndhamhotels.com/laquinta/willowbrook-illinois/la-quinta-inn-chicago-willowbrook/overview,41.744608009115,-87.943749040339
One S Franklin,Chicago,IL,60606,3125581020,https://www.wyndhamhotels.com/laquinta/chicago-illinois/la-quinta-chicago-downtown/overview,41.881573000868,-87.635063998231
2000 Lakeside Drive,Bannockburn,IL,60015,8473177300,https://www.wyndhamhotels.com/laquinta/bannockburn-illinois/la-quinta-bannockburn-deerfield/overview,42.196527538913,-87.884835325128
1 South 666 Midwest Rd,Oakbrook Terrace,IL,60181,6304954600,https://www.wyndhamhotels.com/laquinta/oakbrook-terrace-illinois/la-quinta-inn-chicago-oakbrook-terrace/overview,41.847425234667,-87.972472528879
4389 Venture Dr.,Peru,IL,61354,8152462045,https://www.wyndhamhotels.com/laquinta/peru-illinois/la-quinta-inn-peru-starved-rock-state-park/overview,41.364086997399,-89.128495012004
1103 Ave. of Mid America,Effingham,IL,62401,2175401111,https://www.wyndhamhotels.com/laquinta/effingham-illinois/la-quinta-effingham/overview,39.139025010699,-88.560215974487
136 Regency Park,O Fallon,IL,62269,6187262323,https://www.wyndhamhotels.com/laquinta/o-fallon-illinois/la-quinta-inn-suites-o-fallon-il-st-louis/overview,38.588541005081,-89.938608971396
5688 Northridge Rd,Gurnee,IL,60031,8476627600,https://www.wyndhamhotels.com/laquinta/gurnee-illinois/la-quinta-chicago-gurnee/overview,42.377940925014,-87.944049950663
19715 NE Frontage Road,Shorewood,IL,60404,8157684282,https://www.wyndhamhotels.com/laquinta/shorewood-illinois/la-quinta-inn-and-suites-shorewood/overview,41.524654213118,-88.185683455405
6860 Mannheim Rd,Rosemont,IL,60018,2245003182,https://www.wyndhamhotels.com/laquinta/rosemont-illinois/la-quinta-chicago-ohare-airport/overview,42.002543936445,-87.884668025523
2930 Eaglecrest Dr.,Emporia,KS,66801,6204122763,https://www.wyndhamhotels.com/laquinta/emporia-kansas/la-quinta-emporia/overview,38.421687990623,-96.219015967203
9461 Lenexa Drive,Lenexa,KS,66215,9134925500,https://www.wyndhamhotels.com/laquinta/lenexa-kansas/la-quinta-inn-kansas-city-lenexa/overview,38.957401993199,-94.72996701241
2400 W Wyatt Earp Blvd.,Dodge City,KS,67801,6204886484,https://www.wyndhamhotels.com/laquinta/dodge-city-kansas/la-quinta-dodge-city/overview,37.754816020725,-100.047258967556
20570 W 151st St.,Olathe,KS,66061,9136241246,https://www.wyndhamhotels.com/laquinta/olathe-kansas/la-quinta-olathe/overview,38.855582992013,-94.819245010065
201 E Diamond Dr.,Salina,KS,67401,7858279000,https://www.wyndhamhotels.com/laquinta/salina-kansas/la-quinta-salina/overview,38.87856101565,-97.610397980367
2410 S Broadway Street,Pittsburg,KS,66762,6206705614,https://www.wyndhamhotels.com/laquinta/pittsburg-kansas/la-quinta-pittsburg/overview,37.382565013777,-94.706445967176
2660 N. Greenwich Court,Wichita,KS,67226,3167474090,https://www.wyndhamhotels.com/laquinta/wichita-kansas/la-quinta-wichita-northeast/overview,37.731459009336,-97.199825959839
6335 W. Kellogg Dr.,Wichita,KS,67209,3162520704,https://www.wyndhamhotels.com/laquinta/wichita-kansas/la-quinta-wichita-airport/overview,37.672066016901,-97.415931959365
199 Walker Road,Chambersburg,PA,17201,7174460770,https://www.wyndhamhotels.com/laquinta/chambersburg-pennsylvania/la-quinta-chambersburg/overview,39.931847983939,-77.634512976573
8507 University Boulevard,Moon Township,PA,15108,4122690400,https://www.wyndhamhotels.com/laquinta/moon-township-pennsylvania/la-quinta-inn-pittsburgh-airport/overview,40.507907984083,-80.222383001923
1405 Kenneth Rd.,York,PA,17408,7178010514,https://www.wyndhamhotels.com/laquinta/york-pennsylvania/la-quinta-york/overview,39.976276010264,-76.764228016494
25 Eastbrook Rd.,Ronks,PA,17572,7172082453,https://www.wyndhamhotels.com/laquinta/ronks-pennsylvania/la-quinta-lancaster/overview,40.024324012932,-76.192786989823
990 Eisenhower Blvd.,Harrisburg,PA,17111,7179398000,https://www.wyndhamhotels.com/laquinta/harrisburg-pennsylvania/la-quinta-harrisburg-airport-hershey/overview,40.239347992576,-76.803766962515
130 Limekiln Rd.,New Cumberland,PA,17070,7177748888,https://www.wyndhamhotels.com/laquinta/new-cumberland-pennsylvania/la-quinta-new-cumberland-harrisburg/overview,40.214861016821,-76.87884601619
53 Industrial Hway,Essington,PA,19029,6108577830,https://www.wyndhamhotels.com/laquinta/essington-pennsylvania/la-quinta-philadelphia-airport/overview,39.868592652015,-75.290027444064
7820 Perry Hwy,Erie,PA,16509,8148641812,https://www.wyndhamhotels.com/laquinta/erie-pennsylvania/la-quinta-erie/overview,42.070321013252,-80.041617034023
265 North Hershey Rd.,Harrisburg,PA,17112,7172203701,https://www.wyndhamhotels.com/laquinta/harrisburg-pennsylvania/la-quinta-harrisburg-hershey/overview,40.352331982158,-76.713188009669
350 Bent Creek Blvd.,Mechanicsburg,PA,17050,7177901520,https://www.wyndhamhotels.com/laquinta/mechanicsburg-pennsylvania/la-quinta-mechanicsburg-harrisburg/overview,40.253985016725,-77.030197036001
6950 Nova Way,Manassas,VA,20109,7033939966,https://www.wyndhamhotels.com/laquinta/manassas-virginia/la-quinta-manassas-battlefield/overview,38.806110233444,-77.519303298331
1800 E Main St.,Wytheville,VA,24382,2766334901,https://www.wyndhamhotels.com/laquinta/wytheville-virginia/la-quinta-wytheville/overview,36.948950009862,-81.059234980987
9040 Pams Avenue,Richmond,VA,23237,8047430770,https://www.wyndhamhotels.com/laquinta/richmond-virginia/la-quinta-inn-richmond-south/overview,37.401103981492,-77.428177007208
140 Sheraton Dr.,Salem,VA,24153,5403028779,https://www.wyndhamhotels.com/laquinta/salem-virginia/la-quinta-inn-and-suites-roanoke-salem/overview,37.321711013709,-80.032016988859
1055 Mllwd Pike,Winchester,VA,22602,5406843489,https://www.wyndhamhotels.com/laquinta/winchester-virginia/la-quinta-winchester/overview,39.165038,-78.215894
600 Bypass Rd.,Williamsburg,VA,23185,7572202800,https://www.wyndhamhotels.com/laquinta/williamsburg-virginia/la-quinta-williamsburg-historic-area/overview,37.283810981216,-76.7097520161
1450 Tyler Ave.,Radford,VA,24141,5406336800,https://www.wyndhamhotels.com/laquinta/radford-virginia/la-quinta-inn-radford/overview,37.12643098418,-80.540491985409
16280 International St.,Doswell,VA,23047,8042585300,https://www.wyndhamhotels.com/laquinta/doswell-virginia/la-quinta-richmond-kings-dominion/overview,37.850131000322,-77.446512001309
192 Newtown Road,Virginia Beach,VA,23462,7574976620,https://www.wyndhamhotels.com/laquinta/virginia-beach-virginia/la-quinta-inn-norfolk-virginia-beach/overview,36.843410994319,-76.184020022016
1387 N Military Hwy.,Norfolk,VA,23502,7574667001,https://www.wyndhamhotels.com/laquinta/norfolk-virginia/la-quinta-inn-and-suites-norfolk/overview,36.871694008294,-76.211617019126
2800 Pacific Avenue,Virginia Beach,VA,23451,7574282203,https://www.wyndhamhotels.com/laquinta/virginia-beach-virginia/la-quinta-virginia-beach/overview,36.856478004184,-75.979276027521
1301 Huguenot Rd,Midlothian,VA,23113,8043020195,https://www.wyndhamhotels.com/laquinta/midlothian-virginia/la-quinta-inn-and-suites-richmond-midlothian/overview,37.50941099483,-77.611542035645
3320 Candlers Mountain Rd.,Lynchburg,VA,24502,4345094150,https://www.wyndhamhotels.com/laquinta/lynchburg-virginia/la-quinta-lynchburg-at-liberty-univ/overview,37.368446997073,-79.175104014191
7408 Centreville Road,Manassas,VA,20111,7037898684,https://www.wyndhamhotels.com/laquinta/manassas-virginia/la-quinta-inn-and-suites-manassas-va-dulles-airport/overview,38.794224401374,-77.448027030308
60 State Farm Parkway,Homewood,AL,35209,2052900150,https://www.wyndhamhotels.com/laquinta/homewood-alabama/la-quinta-birmingham-homewood/overview,33.455359983936,-86.820582983466
4870 University Drive N.W.,Huntsville,AL,35816,2568302070,https://www.wyndhamhotels.com/laquinta/huntsville-alabama/la-quinta-inn-huntsville-research-park/overview,34.7386099979,-86.654527004182
2054 St. Joseph Dr. NW,Cullman,AL,35058,2567759500,https://www.wyndhamhotels.com/laquinta/cullman-alabama/la-quinta-cullman/overview,34.209236988895,-86.872926962968
918 Beltline Rd. SW,Decatur,AL,35601,2563559977,https://www.wyndhamhotels.com/laquinta/decatur-alabama/la-quinta-inn-decatur/overview,34.560893995017,-87.001783972141
3593 Ross Clark Circle,Dothan,AL,36303,3345137904,https://www.wyndhamhotels.com/laquinta/dothan-alabama/la-quinta-dothan/overview,31.248717983835,-85.426365959191
261 Interstate Hwy Park Loop,Prattville,AL,36066,3343100869,https://www.wyndhamhotels.com/laquinta/prattville-alabama/la-quinta-prattville/overview,32.486803259233,-86.411554520084
1207 Boots Blvd.,Fultondale,AL,35068,2059498700,https://www.wyndhamhotels.com/laquinta/fultondale-alabama/la-quinta-fultondale-birmingham-north/overview,33.611244020803,-86.800438001193
5170 Motel Court,Mobile,AL,36619,2512988361,https://www.wyndhamhotels.com/laquinta/mobile-alabama/la-quinta-mobile-tillmans-corner/overview,30.583920995977,-88.166771031994
100 Colonial Drive,Oxford,AL,36203,2562941258,https://www.wyndhamhotels.com/laquinta/oxford-alabama/la-quinta-oxford-anniston/overview,33.613573980338,-85.790610027402
8946 Sawwood Street,Daphne,AL,36527,2513386555,https://www.wyndhamhotels.com/laquinta/daphne-alabama/la-quinta-mobile-daphne/overview,30.665864995991,-87.85400400304
105 Westchester Rd.,Madison,AL,35758,2562582777,https://www.wyndhamhotels.com/laquinta/madison-alabama/la-quinta-huntsville-airport-madison/overview,34.675012014189,-86.760373006929
6104 Hwy. 43,Satsuma,AL,36572,2512198133,https://www.wyndhamhotels.com/laquinta/satsuma-alabama/la-quinta-mobile-satsuma-saraland/overview,30.870680991034,-88.048085965239
3151 Capps Way,Opelika,AL,36804,3347489000,https://www.wyndhamhotels.com/laquinta/opelika-alabama/la-quinta-opelika/overview,32.612765982101,-85.399676973652
3920 McFarland Blvd. E,Tuscaloosa,AL,35405,2053032005,https://www.wyndhamhotels.com/laquinta/tuscaloosa-alabama/la-quinta-inn-suites-by-wyndham-tuscaloosa-university/overview,33.172432991291,-87.526383990201
3650 Airport Blvd.,Mobile,AL,36608,2512023377,https://www.wyndhamhotels.com/laquinta/mobile-alabama/la-quinta-inn-and-suites-mobile-i-65-airport-blvd/overview,30.677415007109,-88.130049998001
10095 Chantilly Parkway,Montgomery,AL,36117,3345230019,https://www.wyndhamhotels.com/laquinta/montgomery-alabama/la-quinta-montgomery/overview,32.363743997348,-86.135780991118
120 Riverchase Parkway East,Birmingham,AL,35244,2054180603,https://www.wyndhamhotels.com/laquinta/birmingham-alabama/la-quinta-birmingham-hoover/overview,33.353281981942,-86.783943002477
513 Cahaba Park Crl,Birmingham,AL,35242,2054459293,https://www.wyndhamhotels.com/laquinta/birmingham-alabama/la-quinta-inn-birmingham-inverness/overview,33.430976985689,-86.70837503239
1717 N Merrill Ave.,Glendive,MT,59330,4063777300,https://www.wyndhamhotels.com/laquinta/glendive-montana/la-quinta-glendive/overview,47.122124231943,-104.696731336739
5059 N. Reserve St.,Missoula,MT,59808,4065103892,https://www.wyndhamhotels.com/laquinta/missoula-montana/la-quinta-inn-missoula/overview,46.912331691437,-114.036161757091
6445 Jackrabbit Ln.,Belgrade,MT,59714,4068738071,https://www.wyndhamhotels.com/laquinta/belgrade-montana/la-quinta-belgrade-bozeman-airport/overview,45.764031114878,-111.187588726723
1 Holiday Park Dr.,Butte,MT,59701,4064946999,https://www.wyndhamhotels.com/laquinta/butte-montana/la-quinta-butte/overview,45.984273620596,-112.503041056585
5720 S. Frontage Rd.,Billings,MT,59101,4062521188,https://www.wyndhamhotels.com/laquinta/billings-montana/la-quinta-billings/overview,45.747064047375,-108.560518132784
620 Nikles Dr.,Bozeman,MT,59715,4064047383,https://www.wyndhamhotels.com/laquinta/bozeman-montana/la-quinta-bozeman/overview,45.698478680895,-111.045576991069
701 N Washington St.,Helena,MT,59601,4062043934,https://www.wyndhamhotels.com/laquinta/helena-montana/la-quinta-helena/overview,46.591558436207,-112.002691762523
853 S HWY 89,Logan,UT,84321,4353630052,https://www.wyndhamhotels.com/laquinta/logan-utah/la-quinta-logan/overview,41.716947271049,-111.835717244748
1100 W 780 N,Orem,UT,84057,8019603210,https://www.wyndhamhotels.com/laquinta/orem-utah/la-quinta-north-orem/overview,40.311133000213,-111.72213999169
7231 South Catalpa Street,Midvale,UT,84047,8015663291,https://www.wyndhamhotels.com/laquinta/midvale-utah/la-quinta-inn-salt-lake-city-midvale/overview,40.619742982378,-111.901527974709
815 S Main Street,Moab,UT,84532,4352598700,https://www.wyndhamhotels.com/laquinta/moab-utah/la-quinta-moab/overview,38.561501991265,-109.546804022764
1965 North 1200 West,Layton,UT,84041,8017766700,https://www.wyndhamhotels.com/laquinta/layton-utah/la-quinta-salt-lake-city-layton/overview,41.088166018523,-111.988219987596
91 East 2680 South,St. George,UT,84790,4356742664,https://www.wyndhamhotels.com/laquinta/st-george-utah/la-quinta-st-george/overview,37.063188979897,-113.582348000995
4905 W. Wiley Post Way,Salt Lake City,UT,84116,8018838728,https://www.wyndhamhotels.com/laquinta/salt-lake-city-utah/la-quinta-salt-lake-city-airport/overview,40.772746997314,-112.008250975985
521 West University Parkway,Orem,UT,84058,8012260440,https://www.wyndhamhotels.com/laquinta/orem-utah/la-quinta-orem-university-parkway-provo/overview,40.272291009441,-111.707658996669
101 East 500 North,La Verkin,UT,84745,4356353111,https://www.wyndhamhotels.com/laquinta/la-verkin-utah/la-quinta-la-verkin-gateway-to-zion/overview,37.21154799555,-113.268158982167
1377 S Main St.,Cedar City,UT,84720,4358650005,https://www.wyndhamhotels.com/laquinta/cedar-city-utah/la-quinta-cedar-city/overview,37.653416994798,-113.078408033158
511 West South Jordan Pkwy,South Jordan,UT,84095,3854488000,https://www.wyndhamhotels.com/laquinta/south-jordan-utah/la-quinta-south-jordan/overview,40.558240013457,-111.905622031496
465 South 100 East,Kanab,UT,84741,4354126670,https://www.wyndhamhotels.com/laquinta/kanab-utah/la-quinta-kanab/overview,37.040217180222,-112.526042025118
16 Plaza Blvd.,Plattsburgh,NY,12901,5185624000,https://www.wyndhamhotels.com/laquinta/plattsburgh-new-york/la-quinta-plattsburgh/overview,44.697734049846,-73.496657308888
5394 Willow Plc.,Verona,NY,13478,3152315080,https://www.wyndhamhotels.com/laquinta/verona-new-york/la-quinta-verona/overview,43.122550562547,-75.592851431851
6619 Transit Rd.,Williamsville,NY,14221,7166331011,https://www.wyndhamhotels.com/laquinta/williamsville-new-york/la-quinta-inn-buffalo-airport/overview,42.947872556013,-78.696867106464
8200 Park Rd.,Batavia,NY,14020,5853447000,https://www.wyndhamhotels.com/laquinta/batavia-new-york/la-quinta-batavia/overview,43.017433575828,-78.192981080242
1229 Atlantic Avenue,Brooklyn,NY,11216,7189254313,https://www.wyndhamhotels.com/laquinta/brooklyn-new-york/la-quinta-brooklyn-central/overview,40.678672287929,-73.950127993687
6225 Niagara Falls Blvd.,Niagara Falls,NY,14304,7162360600,https://www.wyndhamhotels.com/laquinta/niagara-falls-new-york/la-quinta-niagara-falls/overview,43.089140757494,-78.992750094734
581 Harry L. Dr.,Johnson City,NY,13790,6077709333,https://www.wyndhamhotels.com/laquinta/johnson-city-new-york/la-quinta-inn-binghamton-johnson-city/overview,42.124993904552,-75.970735119642
31 West 71st Street,New York City,NY,10023,2127919451,https://www.wyndhamhotels.com/laquinta/new-york-city-new-york/la-quinta-new-york-city-central-park/overview,40.77617368697,-73.977691630822
1749 Route 9,Clifton Park,NY,12065,5185796500,https://www.wyndhamhotels.com/laquinta/clifton-park-new-york/la-quinta-clifton-park/overview,42.871038062904,-73.771718011131
10 Aero Rd.,Bohemia,NY,11716,6318817700,https://www.wyndhamhotels.com/laquinta/bohemia-new-york/la-quinta-islip-macarthur-airport/overview,40.779404784916,-73.095369419593
833 New Loudon Rd.,Latham,NY,12110,5186402200,https://www.wyndhamhotels.com/laquinta/latham-new-york/la-quinta-latham-albany-airport/overview,42.750805780641,-73.759184132218
533 3rd Ave.,Brooklyn,NY,11215,9176335384,https://www.wyndhamhotels.com/laquinta/brooklyn-new-york/la-quinta-brooklyn-downtown/overview,40.668906564244,-73.993058030025
145 Innkeepers Lane,Buffalo,NY,14228,7164314822,https://www.wyndhamhotels.com/laquinta/buffalo-new-york/la-quinta-buffalo-amherst/overview,43.004884190394,-78.817876604767
821 Stewart Avenue,Garden City,NY,11530,5167059000,https://www.wyndhamhotels.com/laquinta/garden-city-new-york/la-quinta-inn-and-suites-garden-city/overview,40.734139406464,-73.603573010118
200 West Third Street,Jamestown,NY,14701,7164848400,https://www.wyndhamhotels.com/laquinta/jamestown-new-york/la-quinta-jamestown/overview,42.096040841237,-79.244164442292
2500 Hamburg Turnpike,Lackawanna,NY,14218,7168210030,https://www.wyndhamhotels.com/laquinta/lackawanna-new-york/la-quinta-inn-and-suites-buffalo-outer-harbor/overview,42.817694750995,-78.845442002102
333 West 38th Street,New York City,NY,10018,7186903294,https://www.wyndhamhotels.com/laquinta/new-york-city-new-york/la-quinta-by-wyndham-manhattan-midtown/overview,40.755450101921,-73.99310008343
9 02 38th Ave,Long Island City,NY,11101,7189254287,https://www.wyndhamhotels.com/laquinta/long-island-city-new-york/la-quinta-long-island-city/overview,40.758797834049,-73.943217785071
551 Route 211 East,Middletown,NY,10941,8456735788,https://www.wyndhamhotels.com/laquinta/middletown-new-york/la-quinta-inn-and-suites-middletown/overview,41.464134944353,-74.37434533349
551 Route 211 East,Middletown,NY,10941,8456735788,https://www.wyndhamhotels.com/laquinta/middletown-new-york/la-quinta-inn-and-suites-middletown/overview,41.464134944353,-74.37434533349
1533 State Route 9,Lake George,NY,12845,5186399854,https://www.wyndhamhotels.com/laquinta/lake-george-new-york/la-quinta-inn-and-suites-lake-george/overview,43.371079733302,-73.699142045201
6020 W Hospitality Road,Tucson,AZ,85743,5205724235,https://www.wyndhamhotels.com/laquinta/tucson-arizona/la-quinta-nw-tucson-marana/overview,32.358897203747,-111.093570846642
70 Kaibab Road,Page,AZ,86040,9286085327,https://www.wyndhamhotels.com/laquinta/page-arizona/la-quinta-page-at-lake-powell/overview,36.905490344812,-111.475338876003
2015 South Beulah Boulevard,Flagstaff,AZ,86001,9285568666,https://www.wyndhamhotels.com/laquinta/flagstaff-arizona/la-quinta-flagstaff/overview,35.180063925302,-111.663161987282
902 West Grove Avenue,Mesa,AZ,85210,4808448747,https://www.wyndhamhotels.com/laquinta/mesa-arizona/la-quinta-phoenix-mesa-west/overview,33.390366748623,-111.852151105112
8888 East Shea Boulevard,Scottsdale,AZ,85260,4806145300,https://www.wyndhamhotels.com/laquinta/scottsdale-arizona/la-quinta-phoenix-scottsdale/overview,33.583603647344,-111.890065805935
7001 South Tucson Boulevard,Tucson,AZ,85706,5205733333,https://www.wyndhamhotels.com/laquinta/tucson-arizona/la-quinta-inn-and-suites-tucson-airport/overview,32.124613035528,-110.933657293643
2725 N. Black Canyon Highway,Phoenix,AZ,85009,6022586271,https://www.wyndhamhotels.com/laquinta/phoenix-arizona/la-quinta-inn-phoenix-thomas-road/overview,33.47943239076,-112.11218749737
6404 East Broadway,Tucson,AZ,85710,5207471414,https://www.wyndhamhotels.com/laquinta/tucson-arizona/la-quinta-inn-tucson-east/overview,32.220063676229,-110.855752197493
3419 Hotel Way.,Kingman,AZ,86409,9285295070,https://www.wyndhamhotels.com/laquinta/kingman-arizona/la-quinta-kingman/overview,35.223276952851,-114.038618325274
6530 East Superstition,Mesa,AZ,85206,4806541970,https://www.wyndhamhotels.com/laquinta/mesa-arizona/la-quinta-mesa-superstition-springs/overview,33.384489756546,-111.691458613465
16321 North 83rd Avenue,Peoria,AZ,85382,6234871900,https://www.wyndhamhotels.com/laquinta/peoria-arizona/la-quinta-phoenix-west-peoria/overview,33.63538541069,-112.233107766245
911 South 48th Street,Tempe,AZ,85281,4809674465,https://www.wyndhamhotels.com/laquinta/tempe-arizona/la-quinta-inn-phoenix-sky-harbor-airport/overview,33.420306068575,-111.977007767175
15241 South 50th Street,Phoenix,AZ,85044,4809617700,https://www.wyndhamhotels.com/laquinta/phoenix-arizona/la-quinta-phoenix-chandler/overview,33.306852776234,-111.973577557119
2510 West Greenway Road,Phoenix,AZ,85023,6029930800,https://www.wyndhamhotels.com/laquinta/phoenix-arizona/la-quinta-inn-phoenix-north/overview,33.625789682207,-112.11391282832
4929 West McDowell Rd.,Phoenix,AZ,85035,6028347302,https://www.wyndhamhotels.com/laquinta/phoenix-arizona/la-quinta-phoenix-i-10-west/overview,33.465344506998,-112.166495608243
1100 W Cataract Lk. Rd.,Williams,AZ,86046,9282252858,https://www.wyndhamhotels.com/laquinta/williams-arizona/la-quinta-williams-grand-canyon-area/overview,35.250854462036,-112.197155185136
102 N Alvernon Way,Tucson,AZ,85711,5203294155,https://www.wyndhamhotels.com/laquinta/tucson-arizona/la-quinta-tucson-reid-park/overview,32.223942737199,-110.908773434772
4499 E State Rte. 69,Prescott,AZ,86301,9287770770,https://www.wyndhamhotels.com/laquinta/prescott-arizona/la-quinta-conference-center-prescott/overview,34.552145825217,-112.384109780618
1000 N Bronco Way,Flagstaff,AZ,86004,9284405900,https://www.wyndhamhotels.com/laquinta/flagstaff-arizona/la-quinta-flagstaff-east-i-40/overview,35.19698468279,-111.617551442058
2705 Navajo Boulevard,Holbrook,AZ,86025,9288520797,https://www.wyndhamhotels.com/laquinta/holbrook-arizona/la-quinta-inn-and-suites-holbrook-petrified-forest/overview,34.939235418541,-110.132020707304
44575 W. Martin Luther King Jr Blvd,Maricopa,AZ,85138,5204135211,https://www.wyndhamhotels.com/laquinta/maricopa-arizona/la-quinta-inn-and-suites-maricopa-copper-sky/overview,33.038694068342,-112.046700274594
770 S Castle Dome Ave,Yuma,AZ,85365,9282488000,https://www.wyndhamhotels.com/laquinta/yuma-arizona/la-quinta-inn-and-suites-yuma/overview,32.714112704952,-114.606495534352
18 Pratt Rd.,Plainfield,CT,06374,8603170210,https://www.wyndhamhotels.com/laquinta/plainfield-connecticut/la-quinta-norwich-plainfield-casino/overview,41.664282009781,-71.910922011319
349 Liberty St.,Pawcatuck,CT,06379,8605992400,https://www.wyndhamhotels.com/laquinta/pawcatuck-connecticut/la-quinta-stonington-mystic-area/overview,41.397807016688,-71.844645967635
400 Sargent Drive,New Haven,CT,06511,2035621111,https://www.wyndhamhotels.com/laquinta/new-haven-connecticut/la-quinta-inn-and-suites-new-haven/overview,41.294516991495,-72.920189990159
135 Harvard Avenue,Stamford,CT,06902,2032639021,https://www.wyndhamhotels.com/laquinta/stamford-connecticut/la-quinta-stamford-new-york-city/overview,41.044004997725,-73.561745972169
64 Ella Grasso Turnpike,Windsor Locks,CT,06096,8606233336,https://www.wyndhamhotels.com/laquinta/windsor-locks-connecticut/la-quinta-hartford-bradley-airport/overview,41.919338000901,-72.67279602246
116 Newtown Road,Danbury,CT,06810,2037981200,https://www.wyndhamhotels.com/laquinta/danbury-connecticut/la-quinta-danbury/overview,41.417317991805,-73.40661002016
446 Southbridge Street,Auburn,MA,01501,5088327000,https://www.wyndhamhotels.com/laquinta/auburn-massachusetts/la-quinta-inn-auburn-worcester/overview,42.200130374264,-71.841630410329
131 River Rd.,Andover,MA,01810,9786856200,https://www.wyndhamhotels.com/laquinta/andover-massachusetts/la-quinta-boston-andover/overview,42.691056934507,-71.208916749437
23 Cummings St.,Somerville,MA,02145,6176255300,https://www.wyndhamhotels.com/laquinta/somerville-massachusetts/la-quinta-boston-somerville/overview,42.394385045578,-71.084760395384
478 Main Street,Sturbridge,MA,01518,5082965227,https://www.wyndhamhotels.com/laquinta/sturbridge-massachusetts/la-quinta-sturbridge/overview,42.114604787023,-72.10503842314
100 Congress Street,Springfield,MA,01104,4137810900,https://www.wyndhamhotels.com/laquinta/springfield-massachusetts/la-quinta-springfield-ma/overview,42.10897466266,-72.595204074213
41211 Ford Rd.,Canton Township,MI,48187,7349811808,https://www.wyndhamhotels.com/laquinta/canton-township-michigan/la-quinta-inn-detroit-canton/overview,42.321482017786,-83.447043981146
12888 Reeck Rd.,Southgate,MI,48195,7343743000,https://www.wyndhamhotels.com/laquinta/southgate-michigan/la-quinta-inn-detroit-southgate/overview,42.214556006815,-83.226204972354
30847 Flynn Dr.,Romulus,MI,48174,7347211100,https://www.wyndhamhotels.com/laquinta/romulus-michigan/la-quinta-detroit-metro-airport/overview,42.24311600078,-83.341517999462
45311 Park Ave.,Utica,MI,48315,5867314700,https://www.wyndhamhotels.com/laquinta/utica-michigan/la-quinta-detroit-utica/overview,42.628290980416,-83.010818978311
2410 West Lincolnway,Cheyenne,WY,82009,3076327117,https://www.wyndhamhotels.com/laquinta/cheyenne-wyoming/la-quinta-inn-cheyenne/overview,41.121250982918,-104.846979968644
450 E Boxelder Road,Gillette,WY,82718,3076866000,https://www.wyndhamhotels.com/laquinta/gillette-wyoming/la-quinta-gillette/overview,44.276122015098,-105.498247978044
265 Route 3 E,Clifton,NJ,07014,9737786500,https://www.wyndhamhotels.com/laquinta/clifton-new-jersey/la-quinta-clifton-rutherford/overview,40.828238239629,-74.135379562986
109 Rte. 36,West Long Branch,NJ,07764,7324038700,https://www.wyndhamhotels.com/laquinta/west-long-branch-new-jersey/la-quinta-inn-west-long-branch/overview,40.301301991707,-74.020503961491
38 Two Bridges Rd.,Fairfield,NJ,07004,9735751742,https://www.wyndhamhotels.com/laquinta/fairfield-new-jersey/la-quinta-fairfield-nj/overview,40.892776982343,-74.272088964596
350 Lighting Way,Secaucus,NJ,07094,2016233878,https://www.wyndhamhotels.com/laquinta/secaucus-new-jersey/la-quinta-secaucus-meadowlands/overview,40.790995872711,-74.04997642666
5000 Clover Road,Mount Laurel,NJ,08054,8562357500,https://www.wyndhamhotels.com/laquinta/mount-laurel-new-jersey/la-quinta-mt-laurel-philadelphia/overview,39.926367015544,-74.956475968918
3320 24 NJ-38,Mt Laurel Township,NJ,08054,8565488448,https://www.wyndhamhotels.com/laquinta/mt-laurel-township-new-jersey/la-quinta-inn-suites-mount-laurel-moorestown/overview,39.969287530761,-74.889208980675
3330 North 104th Avenue,Omaha,NE,68134,4024931900,https://www.wyndhamhotels.com/laquinta/omaha-nebraska/la-quinta-inn-omaha-west/overview,41.289537009452,-96.075818024611
2600 Eagles Wings Plc.,North Platte,NE,69101,3082217031,https://www.wyndhamhotels.com/laquinta/north-platte-nebraska/la-quinta-north-platte/overview,41.108393418763,-100.726819617906
4433 N 27th Street,Lincoln,NE,68521,4024762222,https://www.wyndhamhotels.com/laquinta/lincoln-nebraska/la-quinta-inn-lincoln/overview,40.855051000069,-96.683470968475
10760 M Street,Omaha,NE,68127,4025925200,https://www.wyndhamhotels.com/laquinta/omaha-nebraska/la-quinta-inn-omaha-southwest/overview,41.211959980993,-96.079099958799
108 3RD Ave.,Kearney,NE,68845,3082374400,https://www.wyndhamhotels.com/laquinta/kearney-nebraska/la-quinta-kearney/overview,40.672227987401,-99.088949020528
2020 Griffith Street,Winston-Salem,NC,27103,3367658777,https://www.wyndhamhotels.com/laquinta/winston-salem-north-carolina/la-quinta-winston-salem/overview,36.062280315003,-80.310400612797
1001 Hospitality Court,Morrisville,NC,27560,9194611771,https://www.wyndhamhotels.com/laquinta/morrisville-north-carolina/la-quinta-raleigh-durham-intl-ap/overview,35.859619097719,-78.816089080095
4414 Chapel Hill Boulevard,Durham,NC,27707,9194019660,https://www.wyndhamhotels.com/laquinta/durham-north-carolina/la-quinta-university-area-chapel-hill/overview,35.945360619723,-79.010531614247
2211 Summit Park Lane,Raleigh,NC,27612,9197850071,https://www.wyndhamhotels.com/laquinta/raleigh-north-carolina/la-quinta-raleigh-crabtree/overview,35.833569693302,-78.675991184393
1910 West Park Drive,Durham,NC,27713,9194841422,https://www.wyndhamhotels.com/laquinta/durham-north-carolina/la-quinta-raleigh-durham-southpoint/overview,35.907518614972,-78.891444568937
1201 Lanada Road,Greensboro,NC,27407,3363160100,https://www.wyndhamhotels.com/laquinta/greensboro-north-carolina/la-quinta-greensboro/overview,36.053657515931,-79.892976721699
165 Highway 105 Ext.,Boone,NC,28607,8282621234,https://www.wyndhamhotels.com/laquinta/boone-north-carolina/la-quinta-inn-and-suites-boone-university/overview,36.215647147317,-81.668831880403
3127 Sloan Dr.,Charlotte,NC,28208,7043921600,https://www.wyndhamhotels.com/laquinta/charlotte-north-carolina/la-quinta-charlotte-airport-north/overview,35.241128520687,-80.920613976624
4900 South Tryon Street,Charlotte,NC,28217,7046214616,https://www.wyndhamhotels.com/laquinta/charlotte-north-carolina/la-quinta-charlotte-airport-south/overview,35.179185501849,-80.891954489468
191 Crescent Commons,Cary,NC,27518,9198512850,https://www.wyndhamhotels.com/laquinta/cary-north-carolina/la-quinta-raleigh-cary/overview,35.735404237982,-78.783565787032
2610 Westinghouse Blvd.,Raleigh,NC,27604,9195215653,https://www.wyndhamhotels.com/laquinta/raleigh-north-carolina/la-quinta-raleigh-downtown-north/overview,35.816202515651,-78.597254603448
7905 Triad Center Drive,Greensboro,NC,27409,3368401550,https://www.wyndhamhotels.com/laquinta/greensboro-north-carolina/la-quinta-greensboro-airport-high-point/overview,36.085852573666,-79.965596608802
1695 Outlet Center Dr,Selma,NC,27576,9199656730,https://www.wyndhamhotels.com/laquinta/selma-north-carolina/la-quinta-inn-and-suites-selma-smithfield-i95/overview,35.517685895561,-78.295627207633
122 Regency Center Dr,Mooresville,NC,28117,7046644900,https://www.wyndhamhotels.com/laquinta/mooresville-north-carolina/la-quinta-inn-and-suites-mooresville/overview,35.595683988927,-80.862195631891
1725 Jim Johnson Road,Fayetteville,NC,28312,9104856866,https://www.wyndhamhotels.com/laquinta/fayetteville-north-carolina/la-quinta-inn-and-suites-fayetteville-i-95/overview,35.006210596769,-78.822977328125
5000 Gateway Dr.,Morgantown,WV,26501,3044131303,https://www.wyndhamhotels.com/laquinta/morgantown-west-virginia/la-quinta-morgantown/overview,39.657188020487,-80.012901974848
106 Merchants Walk,Summersville,WV,26651,3048720555,https://www.wyndhamhotels.com/laquinta/summersville-west-virginia/la-quinta-inn-and-suites-summersville-new-river-national-park/overview,38.298153992881,-80.833819033966
101 Crossings Mall Road,Elkview,WV,25071,3042242885,https://www.wyndhamhotels.com/laquinta/elkview-west-virginia/la-quinta-elkview-charleston-ne/overview,38.457043989774,-81.500461968361
1416 North Elk Vale Road,Rapid City,SD,57703,6057187000,https://www.wyndhamhotels.com/laquinta/rapid-city-south-dakota/la-quinta-rapid-city/overview,44.099083018535,-103.148743018112
4521 W.41st St.,Sioux Falls,SD,57106,6052754555,https://www.wyndhamhotels.com/laquinta/sioux-falls-south-dakota/la-quinta-sioux-falls/overview,43.514342887101,-96.783078572146
36 Jefferson Boulevard,Warwick,RI,02888,4019416600,https://www.wyndhamhotels.com/laquinta/warwick-rhode-island/la-quinta-warwick-providence-airport/overview,41.752493996989,-71.43430302452
4920 Dale Rd.,Fairbanks,AK,99709,9073286300,https://www.wyndhamhotels.com/laquinta/fairbanks-alaska/la-quinta-fairbanks-airport/overview,64.824249984149,-147.866765003589
3501 Minnesota Dr.,Anchorage,AK,99503,9072768884,https://www.wyndhamhotels.com/laquinta/anchorage-alaska/la-quinta-anchorage-airport/overview,61.188342953654,-149.912809110206
36 Blair Park Road,Williston,VT,05495,8023079414,https://www.wyndhamhotels.com/laquinta/williston-vermont/la-quinta-inn-and-suites-williston-burlington/overview,44.452942998359,-73.116267012952
340 Park Avenue,Portland,ME,04102,2078710611,https://www.wyndhamhotels.com/laquinta/portland-maine/la-quinta-portland/overview,43.655359816577,-70.28197892489
8 Keewaydin Drive,Salem,NH,03079,6038934722,https://www.wyndhamhotels.com/laquinta/salem-new-hampshire/la-quinta-salem-nh/overview,42.77405198327,-71.246039025134
21 Front St.,Manchester,NH,03102,6036695400,https://www.wyndhamhotels.com/laquinta/manchester-new-hampshire/la-quinta-manchester/overview,43.003877020908,-71.472959020861
8640 Alexandra Rd.,Richmond,BC,V6X,6042762711,https://www.wyndhamhotels.com/laquinta/richmond-british-columbia/la-quinta-inn-vancouver-airport/overview,49.178178007332,-123.12715801556
63 King St. E,Oshawa,ON,L1H,9055711333,https://www.wyndhamhotels.com/laquinta/oshawa-ontario/la-quinta-oshawa/overview,43.897986786393,-78.861167877382
345 West 120th Ave.,Westminster,CO,80234,3032529800,https://www.wyndhamhotels.com/laquinta/westminster-colorado/la-quinta-inn-denver-northglenn/overview,39.914662986954,-104.991196983024
